uuid,Site Name,Address 1,City,County,ZIP,site_type,Latitude,Longitude
"Amistad Community Health Center, Inc.",Amistad Community Health Center,1533 S Brownlee Blvd,Corpus Christi,Nueces,78404,Primary Care Site,27.7750586,-97.4049653
Asian American Health Coalition dba HOPE Clinic,HOPE Clinic - Alief,14438 Bellaire Blvd,Houston,Harris,77083,Primary Care Site,29.7057384,-95.6407511
Asian American Health Coalition dba HOPE Clinic,HOPE Clinic - West Office,12121 Westheimer Rd,Houston,Harris,77077,Primary Care Site,29.7352169,-95.5934032
Asian American Health Coalition dba HOPE Clinic,Asian American Health Coalition dba HOPE Clinic,7001 Corporate Dr,Houston,Harris,77036,Primary Care Site,29.7034518,-95.5507524
"Atascosa Health Center, Inc.",Atascosa - Karnes Community Health Center,302 N Butler,Karnes City,Karnes,78118,Primary Care Site,28.887206,-97.9038417
"Atascosa Health Center, Inc.",Atascosa - Wilson Community Health Center,540 10th St,Floresville,Wilson,78114,Primary Care Site,29.1549642,-98.1658601
"Atascosa Health Center, Inc.",Atascosa - McMullen Community Health Center,203 Hackberry St,Tilden,McMullen,78072,Primary Care Site,28.4598038,-98.5500639
"Atascosa Health Center, Inc.",Atascosa - Live Oak Community Health Center,105 E Thornton St,Three Rivers,Live Oak,78071,Primary Care Site,28.4584277,-98.176411
"Atascosa Health Center, Inc.","Atascosa Health Center, Inc.",310 W Oaklawn,Pleasanton,Atascosa,78064,Primary Care Site,28.9573263,-98.4867787
"Atascosa Health Center, Inc.",Atascosa - Lytle Community Health Center,15033 Main St,Lytle,Atascosa,78052,Primary Care Site,29.234071,-98.7946588
"Barrio Comprehensive Family Health Care Center, Inc. dba CommuniCare Health Centers",CommuniCare Health Centers - Wimberley Campus,203 Stillwater,Wimberley,Hays,78676,Primary Care Site,29.9900903,-98.0901953
"Barrio Comprehensive Family Health Care Center, Inc. dba CommuniCare Health Centers",CommuniCare Health Centers - San Marcos Campus,1340 Wonder World Dr,San Marcos,Hays,78666,Primary Care Site,29.8499388,-97.9461979
"Barrio Comprehensive Family Health Care Center, Inc. dba CommuniCare Health Centers",CommuniCare Health Centers - Kyle Campus,2810 Dacy Ln,Kyle,Hays,78640,Primary Care Site,30.0147388,-97.8400966
"Barrio Comprehensive Family Health Care Center, Inc. dba CommuniCare Health Centers",CommuniCare Health Centers - Potranco Campus,9594 Potranco Rd,San Antonio,Bexar,78251,Primary Care Site,29.4392671,-98.6736061
"Barrio Comprehensive Family Health Care Center, Inc. dba CommuniCare Health Centers",CommuniCare Health Centers - Las Palmas WIC Campus,803 Castroville Rd,San Antonio,Bexar,78237,WIC only,29.418302,-98.5519531
"Barrio Comprehensive Family Health Care Center, Inc. dba CommuniCare Health Centers",CommuniCare Health Centers - Hill Country Village Campus,14811 San Pedro Ave,San Antonio,Bexar,78232,Primary Care Site,29.5771488,-98.4788662
"Barrio Comprehensive Family Health Care Center, Inc. dba CommuniCare Health Centers",CommuniCare Health Centers - Shavano Park,3619 Paesanos Pkwy,San Antonio,Bexar,78231,Primary Care Site,29.5995872,-98.554162
"Barrio Comprehensive Family Health Care Center, Inc. dba CommuniCare Health Centers",CommuniCare Health Centers - Northwest Campus,8210 Callaghan Rd,San Antonio,Bexar,78230,Primary Care Site,29.5136333,-98.5492272
"Barrio Comprehensive Family Health Care Center, Inc. dba CommuniCare Health Centers",CommuniCare Health Centers - East Campus,3066 E Commerce,San Antonio,Bexar,78220,Primary Care Site,29.4187329,-98.4404859
"Barrio Comprehensive Family Health Care Center, Inc. dba CommuniCare Health Centers",CommuniCare Health Centers - Metropolitan Campus,1200 Brooklyn Ave,San Antonio,Bexar,78212,Primary Care Site,29.4401637,-98.4905063
"Barrio Comprehensive Family Health Care Center, Inc. dba CommuniCare Health Centers",CommuniCare Health Centers - West Commerce,2614 W Commerce St,San Antonio,Bexar,78212,Primary Care Site,29.4277038,-98.5241719
"Barrio Comprehensive Family Health Care Center, Inc. dba CommuniCare Health Centers",CommuniCare Health Centers - West Campus,1102 Barclay St,San Antonio,Bexar,78207,Primary Care Site,29.4098545,-98.5421474
"Barrio Comprehensive Family Health Care Center, Inc. dba CommuniCare Health Centers",CommuniCare Health Centers - Downtown Campus,311 Camden,San Antonio,Bexar,78205,Primary Care Site,29.434691,-98.49235
"Barrio Comprehensive Family Health Care Center, Inc. dba CommuniCare Health Centers",CommuniCare Health Centers - Boerne Campus,430 W Bandera Rd,Boerne,Kendall,78006,Primary Care Site,29.7818249,-98.7366738
Bee Busy Wellness Center,Bee Busy Wellness Center - Westchase Location,9896 Bissonnet,Houston,Harris,77036,Primary Care Site,29.6780351,-95.5526157
Bee Busy Wellness Center,Bee Busy Wellness Center - Braes Oaks Location,8785 W Bellfort St,Houston,Harris,77031,Unknown,29.6551064,-95.5303226
"Brazos Valley Community Action Agency, Inc. dba HealthPoint",HealthPoint - Somerville,600 Memory Ln,Somerville,Burleson,77879,Primary Care Site,30.3445587,-96.5284973
"Brazos Valley Community Action Agency, Inc. dba HealthPoint",HealthPoint - Navasota,1905 Dove Crossing,Navasota,Grimes,77868,Primary Care Site,30.3891054,-96.0675471
"Brazos Valley Community Action Agency, Inc. dba HealthPoint",HealthPoint - Madisonville,100 W Cross St,Madisonville,Madison,77864,Primary Care Site,30.9422587,-95.9110083
"Brazos Valley Community Action Agency, Inc. dba HealthPoint",HealthPoint - Family Planning Hearne,709 Barton St,Hearne,Robertson,77859,Primary Care Site,30.8706511,-96.5957329
"Brazos Valley Community Action Agency, Inc. dba HealthPoint",HealthPoint - Robertson County Community Health Center,1002 W Brown St,Hearne,Robertson,77859,Primary Care Site,30.8719388,-96.600331
"Brazos Valley Community Action Agency, Inc. dba HealthPoint",HealthPoint -  Franklin,808 W Highway 79,Franklin,Robertson,77856,Primary Care Site,31.0201858,-96.4950415
"Brazos Valley Community Action Agency, Inc. dba HealthPoint",HealthPoint - ABC,1604 Rock Prairie Rd,College Station,Brazos,77845,Primary Care Site,30.5812822,-96.289711
"Brazos Valley Community Action Agency, Inc. dba HealthPoint",HealthPoint - Caldwell,1103 Woodson Dr,Caldwell,Burleson,77836,Primary Care Site,30.5203319,-96.716343
"Brazos Valley Community Action Agency, Inc. dba HealthPoint",HealthPoint - Bryan/College Station,3370 S Texas Ave,Bryan,Brazos,77802,Primary Care Site,30.639527,-96.350194
"Brazos Valley Community Action Agency, Inc. dba HealthPoint",HealthPoint - Memorial,1301 Memorial Dr,Bryan,Brazos,77802,Primary Care Site,30.6514311,-96.3449173
"Brazos Valley Community Action Agency, Inc. dba HealthPoint",HealthPoint - Dental,624 Mary Lake,Bryan,Brazos,77801,Primary Care Site,30.6388951,-96.3492384
"Brazos Valley Community Action Agency, Inc. dba HealthPoint",HealthPoint - Hempstead,215 FM 1488 Rd,Hempstead,Waller,77445,Unknown,30.1430775,-96.1251065
"Brazos Valley Community Action Agency, Inc. dba HealthPoint",HealthPoint - Centerville,607 Lassater,Centerville,Leon,75833,Primary Care Site,31.246955,-95.9814956
Brownsville Community Health Center,Brownsville Community Health Center - 22nd Street,2137 E 22nd St,Brownsville,Cameron,78521,Primary Care Site,25.902606,-97.4777803
Brownsville Community Health Center,Brownsville Community Health Center - New Horizon Medical,95 E Price Rd,Brownsville,Cameron,78521,Primary Care Site,25.9333955,-97.4711431
Brownsville Community Health Center,Brownsville Community Health Center - New Horizon Medical Center,191 E Price Rd,Brownsville,Cameron,78521,Primary Care Site,25.9315018,-97.4625673
"Cactus Health Services, Inc.",Cactus Health Services - Fort Stockton Clinic,301 N Water St,Fort Stockton,Pecos,79735,Primary Care Site,30.8874075,-102.8783376
Central Texas Community Health Centers dba CommUnityCare,CommUnityCare - North Central,1210 W Braker Ln,Austin,Travis,78758,Primary Care Site,30.3857717,-97.6939135
Central Texas Community Health Centers dba CommUnityCare,CommUnityCare - North Central Dental Clinic,1210 W Braker Ln,Austin,Travis,78758,Primary Care Site,30.3857717,-97.6939135
Central Texas Community Health Centers dba CommUnityCare,CommUnityCare - Austin Travis County Integral Care #1 (referral only),825 E Rundberg,Austin,Travis,78753,Primary Care Site,30.3564789,-97.6858016
Central Texas Community Health Centers dba CommUnityCare,CommUnityCare - Rundberg,825 E Rundberg Ln,Austin,Travis,78753,Primary Care Site,30.3564789,-97.6858016
Central Texas Community Health Centers dba CommUnityCare,CommUnityCare - David Powell-HIV/AIDS Clinic,4614 N IH 35,Austin,Travis,78751,Primary Care Site,30.3054175,-97.7139584
Central Texas Community Health Centers dba CommUnityCare,CommUnityCare - Hancock,1000 E 41st,Austin,Travis,78751,Primary Care Site,30.2998861,-97.7211168
Central Texas Community Health Centers dba CommUnityCare,CommUnityCare - Austin Travis County Integral Care #2 (referral only),1631 E Second St,Austin,Travis,78745,Primary Care Site,30.2593965,-97.7274916
Central Texas Community Health Centers dba CommUnityCare,CommUnityCare - Austin Travis County Integral Care #3 (referral only),5015 S IH 35,Austin,Travis,78744,Primary Care Site,30.2038328,-97.7558139
Central Texas Community Health Centers dba CommUnityCare,CommUnityCare - William Cannon,6801 S IH 35,Austin,Travis,78744,Primary Care Site,30.1877141,-97.7708312
Central Texas Community Health Centers dba CommUnityCare,CommUnityCare - Southeast Health & Wellness Center,2901 Montopolis Dr,Austin,Travis,78741,Primary Care Site,30.2143153,-97.7096793
Central Texas Community Health Centers dba CommUnityCare,CommUnityCare - Southeast Health & Wellness Center Dental,2901 Montopolis Dr,Austin,Travis,78741,Primary Care Site,30.2143153,-97.7096793
Central Texas Community Health Centers dba CommUnityCare,CommUnityCare - Oak Hill,8656-A Hwy 71 W,Austin,Travis,78735,Primary Care Site,30.2518323,-97.893289
Central Texas Community Health Centers dba CommUnityCare,CommUnityCare - Community First Health Center,9301 Hog Eye Rd,Austin,Travis,78724,Primary Care Site,30.2821978,-97.6229954
Central Texas Community Health Centers dba CommUnityCare,CommUnityCare - Ben White Dental,1221 W Ben White,Austin,Travis,78704,Primary Care Site,30.2270116,-97.7787071
Central Texas Community Health Centers dba CommUnityCare,CommUnityCare - South Austin,2529 S First St,Austin,Travis,78704,Primary Care Site,30.2394422,-97.7606001
Central Texas Community Health Centers dba CommUnityCare,CommUnityCare - South Austin Dental Clinic,2529 S First St,Austin,Travis,78704,Primary Care Site,30.2394422,-97.7606001
Central Texas Community Health Centers dba CommUnityCare,CommUnityCare - East Austin,211 Comal St,Austin,Travis,78702,Primary Care Site,30.2595009,-97.7275233
Central Texas Community Health Centers dba CommUnityCare,CommUnityCare - Sandra Joy Anderson Community Health and Wellness Center,1705 E 11th St,Austin,Travis,78702,Primary Care Site,30.2664163,-97.7222151
Central Texas Community Health Centers dba CommUnityCare,CommUnityCare - Austin Resource Center for the Homeless (ARCH),500 E 7th St,Austin,Travis,78701,Primary Care Site,30.2678638,-97.7375115
Central Texas Community Health Centers dba CommUnityCare,CommUnityCare - Blackstock,1313 Red River,Austin,Travis,78701,Primary Care Site,30.2743046,-97.7346259
Central Texas Community Health Centers dba CommUnityCare,CommUnityCare - Complex Primary Care Health Center,"1400 N IH 35, Suite 2.450",Austin,Travis,78701,Primary Care Site,30.2736667,-97.7326615
Central Texas Community Health Centers dba CommUnityCare,CommUnityCare - Pflugerville,15822 Foothill Farms Loop,Pflugerville,Travis,78660,Primary Care Site,30.4489498,-97.6518864
Central Texas Community Health Centers dba CommUnityCare,CommUnityCare - Manor,600 W Carrie Manor St,Manor,Travis,78653,Primary Care Site,30.3401423,-97.563784
Central Texas Community Health Centers dba CommUnityCare,CommUnityCare - Del Valle,3518 FM 973,Del Valle,Travis,78617,Primary Care Site,30.1987984,-97.6422024
"Centro de Salud Familiar La Fe, Inc.",Centro de Salud Familiar La Fe - Montana Vista Resource Center,14618 Greg Dr,El Paso,El Paso,79938,Other services only,31.797737,-106.1682481
"Centro de Salud Familiar La Fe, Inc.",Centro de Salud Familiar La Fe - CARE Center,1505 Mescalero Dr,El Paso,El Paso,79925,Other services only,31.7868327,-106.4090724
"Centro de Salud Familiar La Fe, Inc.",Centro de Salud Familiar La Fe - Lisbon Satellite Clinic,200 Lisbon St,El Paso,El Paso,79905,Primary Care Site,31.7666407,-106.4243461
"Centro de Salud Familiar La Fe, Inc.",Centro de Salud Familiar La Fe - Administration Office,1314 E Yandell,El Paso,El Paso,79902,Administrative only,31.7701274,-106.4798475
"Centro de Salud Familiar La Fe, Inc.",Centro de Salud Familiar La Fe - Jose Roman Memorial Pediatric Clinic,815 Yandell,El Paso,El Paso,79902,Primary Care Site,31.7670031,-106.4855309
"Centro de Salud Familiar La Fe, Inc.","Centro de Salud Familiar La Fe - Senior Companion Program, Community Outreach",1225 Yandell St,El Paso,El Paso,79902,Other services only,31.7636844,-106.5013296
"Centro de Salud Familiar La Fe, Inc.",Centro de Salud Familiar La Fe - WIC Office,815 E Yandell,El Paso,El Paso,79902,WIC only,31.7670031,-106.4855309
"Centro de Salud Familiar La Fe, Inc.",Centro de Salud Familiar La Fe - Yandell Adult Clinic,823 E Yandell,El Paso,El Paso,79902,Primary Care Site,31.76703,-106.485351
"Centro de Salud Familiar La Fe, Inc.","Centro de Salud Familiar La Fe - Central Clinic, WIC Office, Prenatal",700 S Ochoa St,El Paso,El Paso,79901,Primary Care Site,31.7539696,-106.4796679
"Centro de Salud Familiar La Fe, Inc.","Centro de Salud Familiar La Fe - Child & Adolescent Wellness Center, Pediatric",721 S Ochoa St,El Paso,El Paso,79901,Primary Care Site,31.7534533,-106.480291
"Centro de Salud Familiar La Fe, Inc.","Centro de Salud Familiar La Fe - Child & Adolescent Wellness, Culture & Technology",721 S Ochoa (rear),El Paso,El Paso,79901,Other services only,31.7534533,-106.480291
"Centro de Salud Familiar La Fe, Inc.",Centro de Salud Familiar La Fe - Preparatory School,616 Father Rahm,El Paso,El Paso,79901,Other services only,31.7536219,-106.4815865
"Centro de Salud Familiar La Fe, Inc.",Centro de Salud Familiar La Fe - San Elizario Satellite Clinic,12101 Socorro Rd,San Elizario,El Paso,79849,Primary Care Site,31.5965525,-106.2732688
"Centro de Salud Familiar La Fe, Inc.",Centro de Salud Familiar La Fe - Westway Satellite Clinic & Community Center,1713 Banker Rd,Canutillo,El Paso,79835,Primary Care Site,31.9615606,-106.56941
Centro San Vicente,Centro San Vicente - Pebble Hills,10780 Pebble Hills Dr,El Paso,El Paso,79935,Primary Care Site,31.7827349,-106.3237075
Centro San Vicente,Centro San Vicente,8061 Alameda Ave,El Paso,El Paso,79915,Primary Care Site,31.7234935,-106.3551173
Centro San Vicente,Centro San Vicente - Wellness Center at Emergence Healthcare Network,1600 Montana Ave,El Paso,El Paso,79902,Primary Care Site,31.7730062,-106.47683
Centro San Vicente,Centro San Vicente - Homeless Clinic,1208 Myrtle Ave,El Paso,El Paso,79901,Primary Care Site,31.7640523,-106.4766163
Centro San Vicente,Centro San Vicente - San Elizario Clinic,13017 Perico,San Elizario,El Paso,79849,Primary Care Site,31.5814721,-106.2829924
"Chambers Community Health Centers, Inc.",Chambers - West Medical Center,9825 Eagle Dr,Mont Belvieu,Chambers,77580,Primary Care Site,29.8402654,-94.8539676
"Chambers Community Health Centers, Inc.",Chambers - Bayside Clinic,621 S Ross Sterling,Anahuac,Chambers,77514,Primary Care Site,29.7793241,-94.6711388
"Chambers Community Health Centers, Inc.",Chambers - Bayside Clinic - Anahuac I.S.D School-Based Health Center,409 S Ross Sterling,Anahuac,Chambers,77514,Primary Care Site,29.7786044,-94.6706882
Coastal Bend Wellness Foundation,Coastal Bend Wellness Foundation,5633 S Staples,Corpus Christi,Nueces,78411,Primary Care Site,27.6996575,-97.376128
Coastal Health & Wellness,Coastal Health & Wellness - Texas City,9850 C Emmett F. Lowry Expressway,Texas City,Galveston,77591,Primary Care Site,29.404246,-95.0170814
Coastal Health & Wellness,Coastal Health & Wellness - Galveston,4700 Broadway,Galveston,Galveston,77550,Primary Care Site,29.2930124,-94.819615
Collin County Adult Clinic dba Collin County Community Health Center,The West Side Clinic,"4100 W. 15th Street, Suite 112",Plano,Collin,75093,Primary Care Site,33.0167599,-96.7709934
Collin County Adult Clinic dba Collin County Community Health Center,Collin County Community Health Center,"2520 Avenue K, Suite 100",Plano,Collin,75074,Primary Care Site,33.0243206,-96.6745042
Community Action Corporation of South Texas,"Community Action Corp - Integration Center, Taft",201 Roots Ave,Taft,San Patricio,78390,Primary Care Site,27.974225,-97.386467
Community Action Corporation of South Texas,Community Action Corp - Sinton,621 E Sinton,Sinton,San Patricio,78387,Primary Care Site,28.0369868,-97.5034687
Community Action Corporation of South Texas,Community Action Corp - School Based Health Center,502 E San Patricio Ave,Mathis,San Patricio,78368,Primary Care Site,28.0911457,-97.8245891
Community Action Corporation of South Texas,"Community Action Corp - Integration Center, Kingsville",1621 E Corral St,Kingsville,Kleberg,78363,Primary Care Site,27.5301136,-97.8459324
Community Action Corporation of South Texas,Community Action Corp - Kleberg,1311 E General Cavazos Blvd,Kingsville,Kleberg,78363,Primary Care Site,27.4900634,-97.8506501
Community Action Corporation of South Texas,Community Action Corp - Falfurrias,1302 S Saint Mary's St,Falfurrias,Brooks,78355,Primary Care Site,27.2152372,-98.1460386
Community Action Corporation of South Texas,"Community Action Corp - Integration Center, Falfurrias",101 W Potts,Falfurrias,Brooks,78355,Primary Care Site,27.2149975,-98.1461887
Community Action Corporation of South Texas,Community Action Corp - Duval,115 W Main,Benavides,Duval,78341,Primary Care Site,27.5913749,-98.4243727
Community Action Corporation of South Texas,Community Action Corp - Alice,700 Flournoy Rd,Alice,Jim Wells,78332,Primary Care Site,27.75876,-98.045498
Community Action Corporation of South Texas,"Community Action Corp - Integration Center, Alice",614 W Front St,Alice,Jim Wells,78332,Primary Care Site,27.7462045,-98.0835643
Community Action Corporation of South Texas,Community Action Corp - Beeville,301 SouthHill Side Dr,Beeville,Bee,78102,Primary Care Site,28.4073736,-97.7321659
Community Action Corporation of South Texas,"Community Action Corp - Integration Center, Beeville",2808 Industrial Loop,Beeville,Bee,78102,Primary Care Site,28.4008319,-97.7483312
"Community Health Center of Lubbock, Inc.",CHC of Lubbock - Arnett Benson Medical and Dental Clinic,3301 Clovis Rd,Lubbock,Lubbock,79415,Primary Care Site,33.6126532,-101.8854771
"Community Health Center of Lubbock, Inc.",CHC of Lubbock - Medical Plaza,3502 9th St,Lubbock,Lubbock,79415,Primary Care Site,33.5877884,-101.8899741
"Community Health Center of Lubbock, Inc.",CHC of Lubbock - 96 West,2401 Fulton Ave.,Lubbock,Lubbock,79407,Primary Care Site,33.5723227,-101.9410884
"Community Health Center of Lubbock, Inc.",CHC of Lubbock - West Medical and Dental Clinic,5424 19th St,Lubbock,Lubbock,79407,Primary Care Site,33.5785028,-101.9306365
"Community Health Center of Lubbock, Inc.",CHC of Lubbock - Chatman Community Health Center,2301 Cedar Ave,Lubbock,Lubbock,79404,Primary Care Site,33.5739151,-101.8331386
"Community Health Center of Lubbock, Inc.",CHC of Lubbock - Community Dental Clinic,1826 Parkway Dr,Lubbock,Lubbock,79403,Primary Care Site,33.5938781,-101.8148681
"Community Health Center of Lubbock, Inc.",CHC of Lubbock - Parkway Community Health Center,406 MLK Blvd,Lubbock,Lubbock,79403,Primary Care Site,33.5917795,-101.8189131
"Community Health Center of Lubbock, Inc.",CHC of Lubbock - Mobile Dental Unit,1610 5th St,Lubbock,Lubbock,79401,Primary Care Site,33.5918254,-101.8536123
"Community Health Center of Lubbock, Inc.",CHC of Lubbock - Mobile Medical Unit,1610 5th St,Lubbock,Lubbock,79401,Primary Care Site,33.5918254,-101.8536123
"Community Health Center of Lubbock, Inc.",Community Health Center of Lubbock,1610 5th St,Lubbock,Lubbock,79401,Primary Care Site,33.5918254,-101.8536123
Community Health Centers of South Central Texas,CHC of South Central Texas -  Luling Community Dental Center,651 S Crockett St,Luling,Caldwell,78648,Primary Care Site,29.6799619,-97.6484111
Community Health Centers of South Central Texas,CHC of South Central Texas -  Luling Community Health Center,111 S Laurel St,Luling,Caldwell,78648,Primary Care Site,29.6800022,-97.6485305
Community Health Centers of South Central Texas,CHC of South Central Texas -  Lockhart Family Practice Center,2060 S Colorado St,Lockhart,Caldwell,78644,Primary Care Site,29.8524779,-97.667655
Community Health Centers of South Central Texas,CHC of South Central Texas -  Gonzales Admin and WIC,229 St. George St,Gonzales,Gonzales,78629,Primary Care Site,29.5021688,-97.4546584
Community Health Centers of South Central Texas,CHC of South Central Texas -  Gonzales Community Dental Clinic,228 St. George St,Gonzales,Gonzales,78629,Primary Care Site,29.5015949,-97.4544471
Community Health Centers of South Central Texas,CHC of South Central Texas -  Gonzales Community Health Center,228 St. George St,Gonzales,Gonzales,78629,Primary Care Site,29.5015949,-97.4544471
Community Health Centers of South Central Texas,CHC of South Central Texas -  Gonzales WIC,228 St. George St,Gonzales,Gonzales,78629,WIC only,29.5015949,-97.4544471
Community Health Centers of South Central Texas,CHC of South Central Texas - Elgin Family Health Center at Elgin ISD,902 W 2nd St,Elgin,Bastrop,78629,Primary Care Site,30.3481782,-97.3793866
Community Health Centers of South Central Texas,CHC of South Central Texas -  Bastrop Community Health Center,275 Jackson St,Bastrop,Bastrop,78602,Primary Care Site,30.100013,-97.3061654
Community Health Centers of South Central Texas,CHC of South Central Texas -  Seguin Community Dental Center,1201 W Court St,Seguin,Guadalupe,78155,Primary Care Site,29.568767,-97.9835968
Community Health Centers of South Central Texas,CHC of South Central Texas -  Seguin Community Health Center,1201 W Court St,Seguin,Guadalupe,78155,Primary Care Site,29.568767,-97.9835968
Community Health Centers of South Central Texas,CHC of South Central Texas -  Seguin Family Health Center,1104 Jefferson St,Seguin,Guadalupe,78155,Primary Care Site,29.5674054,-97.9830432
Community Health Centers of South Central Texas,CHC of South Central Texas -  Nixon WIC,207 S Washington Ave,Nixon,Gonzales,78140,WIC only,29.2662,-97.7626802
Community Health Centers of South Central Texas,CHC of South Central Texas -  Hallettsville WIC,318 La Grange,Hallettsville,Lavaca,77964,WIC only,29.4476074,-96.9427029
Community Health Centers of South Central Texas,CHC of South Central Texas -  Victoria Community Dental Center,2805 Navarro St,Victoria,Victoria,77901,Primary Care Site,28.8217249,-97.0023012
Community Health Centers of South Central Texas,CHC of South Central Texas -  Victoria Community Health Center,2805 Navarro St,Victoria,Victoria,77901,Primary Care Site,28.8217249,-97.0023012
"Community Health Development, Inc.",Community Health - Rolling Hills Health,Highway 83 & Oakhill Dr,Leakey,Real,78873,Primary Care Site,29.7184584,-99.7633095
"Community Health Development, Inc.",Community Health - Canyon Health Center,700 Frio St,Campwood,Real,78833,Primary Care Site,29.6641671,-100.0093893
"Community Health Development, Inc.","Community Health - Center for Community Wellness, Administration Building",908 S Evans St,Uvalde,Uvalde,78801,Administrative only,29.1932964,-99.7899167
"Community Health Development, Inc.","Community Health - Center for Community Wellness, Dental Dept. & Teaching Kitchen",908 S Evans St,Uvalde,Uvalde,78801,Primary Care Site,29.1932964,-99.7899167
"Community Health Development, Inc.","Community Health - Center for Community Wellness, Fitness Center",908 S Evans St,Uvalde,Uvalde,78801,Other services only,29.1932964,-99.7899167
"Community Health Development, Inc.",Community Health - Our Health/Nuestro Centro de Salud,200 S Evans St,Uvalde,Uvalde,78801,Primary Care Site,29.204036,-99.7954949
"Community Health Development, Inc.",Community Health - Uvalde County Jail Clinic,339 King Fisher Ln,Uvalde,Uvalde,78801,Primary Care Site,29.1943308,-99.8264122
"Community Health Service Agency, Inc.",Community Health Service Agency - Farmersville Family Medical Center,111 N Johnson St,Farmersville,Collin,75442,Primary Care Site,33.1641324,-96.3632034
"Community Health Service Agency, Inc.",Community Health Service Agency - Cooper Community Health Center,91 W Side Sq,Cooper,Delta,75432,Primary Care Site,33.3744159,-95.6890657
"Community Health Service Agency, Inc.",Community Health Service Agency - Bonham Community Health Center,920 N Center St,Bonham,Fannin,75418,Primary Care Site,33.5822588,-96.177434
"Community Health Service Agency, Inc.",Community Health Service Agency - Patient Support Center,2824 Terrell St,Greenville,Hunt,75402,Administrative only,33.1070877,-96.1109153
"Community Health Service Agency, Inc.",Community Health Service Agency - Pediatric Center of Greenville,3005 A Joe Ramsey Blvd,Greenville,Hunt,75402,Primary Care Site,33.119877,-96.111112
"Community Health Service Agency, Inc.",Community Health Service Agency - Administration Office,4500 Wesley St,Greenville,Hunt,75401,Administrative only,33.1248379,-96.1095906
"Community Health Service Agency, Inc.",Community Health Service Agency - Dental,3600 Caddo St,Greenville,Hunt,75401,Primary Care Site,33.1333065,-96.1176426
"Community Health Service Agency, Inc.",Community Health Service Agency - Greenville Community Health Center,4311 Wesley St,Greenville,Hunt,75401,Primary Care Site,33.1264583,-96.1086799
"Community Health Service Agency, Inc.",Community Health Service Agency - Women's Center of Greenville,4311 B Wesley St,Greenville,Hunt,75401,Primary Care Site,33.1261916,-96.1087627
"Community Health Service Agency, Inc.",Community Health Service Agency - Kaufman Community Health Center,101 N Houston,Kaufman,Kaufman,75142,Primary Care Site,32.5891347,-96.3126804
"Cross Timbers Health Clinics, Inc. dba AccelHealth",AccelHealth - Brownwood Dental Clinic,104 S Park Dr,Brownwood,Brown,76801,Primary Care Site,31.680255,-98.9951526
"Cross Timbers Health Clinics, Inc. dba AccelHealth",AccelHealth - Brownwood Medical Clinic,3804 Hwy 377 S,Brownwood,Brown,76801,Primary Care Site,31.7093197,-98.9911611
"Cross Timbers Health Clinics, Inc. dba AccelHealth",AccelHealth - DeLeon Dental Clinic,1100 W Reynosa St,De Leon,Comanche,76444,Primary Care Site,32.1119702,-98.5474679
"Cross Timbers Health Clinics, Inc. dba AccelHealth",AccelHealth - DeLeon Medical Clinic & Administration,1100 W Reynosa St,De Leon,Comanche,76444,Primary Care Site,32.1119702,-98.5474679
"Cross Timbers Health Clinics, Inc. dba AccelHealth",AccelHealth - Stephenville Dental Clinic,135 River North Blvd,Stephenville,Erath,76401,Primary Care Site,32.2275781,-98.23168
"Cross Timbers Health Clinics, Inc. dba AccelHealth",AccelHealth - Stephenville Medical Clinic,135 River North Blvd,Stephenville,Erath,76401,Primary Care Site,32.2275781,-98.23168
Dallas County Hospital District,DALLAS COUNTY HOSPITAL DISTRICT,5201 HARRY HINES BLVD,Dallas,Dallas,75235,Unknown,32.8105277,-96.8376573
East Texas Border Health dba Genesis PrimeCare,Genesis PrimeCare - Marshall,805 Lindsey Dr,Marshall,Harrison,75670,Primary Care Site,32.5370787,-94.3703642
East Texas Border Health dba Genesis PrimeCare,Genesis PrimeCare - Marshall Pediatrics,618 S Grove St,Marshall,Harrison,75670,Primary Care Site,32.5401686,-94.371595
East Texas Border Health dba Genesis PrimeCare,Genesis PrimeCare - Marshall Pediatrics,707 S Grove St,Marshall,Harrison,75670,Primary Care Site,32.5376349,-94.372131
East Texas Border Health dba Genesis PrimeCare,Genesis PrimeCare - Marshall Pediatrics,620 S Grove St,Marshall,Harrison,75670,Primary Care Site,32.5397142,-94.3716969
East Texas Border Health dba Genesis PrimeCare,Genesis PrimeCare - Jefferson,106 N Alley,Jefferson,Marion,75657,Primary Care Site,32.762303,-94.3510738
East Texas Border Health dba Genesis PrimeCare,Genesis PrimeCare - Longview Medical Clinic,2131 S Mobberly,Longview,Gregg,75602,Primary Care Site,32.4673298,-94.7311283
East Texas Border Health dba Genesis PrimeCare,Genesis PrimeCare - Ellington Memorial Clinic,1011 S William St,Atlanta,Cass,75551,Unknown,33.1054459,-94.163406
East Texas Border Health dba Genesis PrimeCare,Genesis PrimeCare - Texarkana Medical Clinic,1400 College Dr,Texarkana,Bowie,75503,Primary Care Site,33.4493547,-94.0608812
East Texas Border Health dba Genesis PrimeCare,Genesis PrimeCare - Texarkana OB/GYN,2602 St. Michael Dr,Texarkana,Bowie,75503,Primary Care Site,33.4629092,-94.0753748
East Texas Border Health dba Genesis PrimeCare,Genesis PrimeCare - Texarkana Arkansas Clinic,1205 E 35th St,Texarkana,Miller,71854,Primary Care Site,33.4566491,-94.0299082
"East Texas Community Health Services, Inc.","East Texas Community Health Services - Westside Community Clinic, Dental",1210 Douglass Rd,Nacogdoches,Nacogdoches,75963,Primary Care Site,31.6073167,-94.6676014
"East Texas Community Health Services, Inc.",East Texas Community Health Services - Administration Office,1401 S University Dr,Nacogdoches,Nacogdoches,75961,Administrative only,31.5882371,-94.6465902
"East Texas Community Health Services, Inc.","East Texas Community Health Services - Eastside Community Clinic, Medical",1309 S University Dr,Nacogdoches,Nacogdoches,75961,Primary Care Site,31.5888603,-94.6465918
"East Texas Community Health Services, Inc.","East Texas Community Health Services - Lufkin Community Clinic, Medical",1316 Lakeview St,Lufkin,Angelina,75904,Primary Care Site,31.3554877,-94.7302888
Ector County Hospital District dba Family Health Clinic,Family Health Clinic - West University,6030 W University,Odessa,Ector,79764,Unknown,31.8535491,-102.4487398
Ector County Hospital District dba Family Health Clinic,Family Health Clinic - Clements,840 Clements,Odessa,Ector,79763,Primary Care Site,31.8328106,-102.3720728
El Centro de Corazon,El Centro de Corazon - Southeast,5901 Long Dr,Houston,Harris,77087,Primary Care Site,29.6949536,-95.3243955
El Centro de Corazon,El Centro de Corazon - Eastwood Health Center,412 Telephone Rd,Houston,Harris,77023,Primary Care Site,29.7377637,-95.3328939
El Centro de Corazon,El Centro de Corazon - Dunn Health Center,7635 Canal St,Houston,Harris,77012,Primary Care Site,29.7358443,-95.2869261
El Centro de Corazon,El Centro de Corazon - Magnolia Health Center,7037 Capitol St,Houston,Harris,77011,Primary Care Site,29.7345052,-95.301021
El Centro del Barrio dba CentroMed,CentroMed - Medina Base Clinic,5750 Medina Base Rd,San Antonio,Bexar,78242,Primary Care Site,29.3644814,-98.6102912
El Centro del Barrio dba CentroMed,CentroMed - Children's Residential Treatment Center Clinic,4040 High Ridge Cr,San Antonio,Bexar,78229,Other services only,29.502804,-98.5637321
El Centro del Barrio dba CentroMed,CentroMed - Palo Alto Clinic,9011 Poteet Jourdanton Hwy 16,San Antonio,Bexar,78224,Primary Care Site,29.3334405,-98.5517673
El Centro del Barrio dba CentroMed,CentroMed - City Base Clinic,3127 SE Military Dr,San Antonio,Bexar,78223,Primary Care Site,29.3539293,-98.4394147
El Centro del Barrio dba CentroMed,CentroMed - CentroFitness & Encino Ballroom,3800 Commercial Ave,San Antonio,Bexar,78221,Other services only,29.3350016,-98.5153359
El Centro del Barrio dba CentroMed,"CentroMed - Health and Wellness Center, Southside Medical Clinic",3750 Commercial Ave,San Antonio,Bexar,78221,Primary Care Site,29.3358183,-98.5152194
El Centro del Barrio dba CentroMed,CentroMed - WIC Nutrition Program (Military Dr),910 SW Military Dr,San Antonio,Bexar,78221,WIC only,29.356379,-98.5063294
El Centro del Barrio dba CentroMed,CentroMed - Noemi Galvan Eling Clinic,5542 Walzem Rd,San Antonio,Bexar,78218,Primary Care Site,29.5090482,-98.3779018
El Centro del Barrio dba CentroMed,CentroMed - WIC Nutrition Program (Walzem Rd),5255 Walzem Rd,San Antonio,Bexar,78218,WIC only,29.5112599,-98.3859864
El Centro del Barrio dba CentroMed,CentroMed - Davidson House Respite Care Shelter Clinic,605 Belknap Place,San Antonio,Bexar,78212,Primary Care Site,29.452254,-98.4977526
El Centro del Barrio dba CentroMed,CentroMed - Respite Day Care Shelter Clinic,510 Belknap Place,San Antonio,Bexar,78212,Other services only,29.4513686,-98.4961233
El Centro del Barrio dba CentroMed,CentroMed - South Park Dental,910 Wagner,San Antonio,Bexar,78211,Primary Care Site,29.3644947,-98.5343717
El Centro del Barrio dba CentroMed,CentroMed - South Park Medical,6315 S Zarzamora,San Antonio,Bexar,78211,Primary Care Site,29.3651912,-98.5346389
El Centro del Barrio dba CentroMed,CentroMed - South Park Pharmacy,918 Wagner,San Antonio,Bexar,78211,Other services only,29.3646464,-98.53493
El Centro del Barrio dba CentroMed,CentroMed - Santa Rosa Pavilion Clinic,315 N San Saba,San Antonio,Bexar,78207,Primary Care Site,29.4278921,-98.5001541
El Centro del Barrio dba CentroMed,CentroMed - Sarah E. Davidson Homeless Clinic,1 Haven for Hope Way,San Antonio,Bexar,78207,Primary Care Site,29.4329863,-98.5071824
El Centro del Barrio dba CentroMed,CentroMed - County Line Clinic,1034 W County Line,New Braunfels,Comal,78130,Primary Care Site,29.671892,-98.1180053
El Centro del Barrio dba CentroMed,CentroMed - House of Hope Dental Clinic,256 Krueger Ave,New Braunfels,Comal,78130,Primary Care Site,29.6839191,-98.1493862
El Centro del Barrio dba CentroMed,CentroMed - Maria Castro Flores Clinic,7315 S Loop 1604 W,Somerset,Bexar,78069,Primary Care Site,29.2288941,-98.644956
Ellis County Coalition for Health Options dba Hope Clinic,Ellis County Hope Clinic Coalition for Health Options dba Hope Clinic,411 E Jefferson St,Waxahachie,Ellis,75165,Primary Care Site,32.3832538,-96.8442709
Ellis County Coalition for Health Options dba Hope Clinic,Hope Clinic - Administrative Offices,201 Ferris Ave,Waxahachie,Ellis,75165,Administrative only,32.3880402,-96.8502181
Ellis County Coalition for Health Options dba Hope Clinic,Hope Clinic - Billing and Accounting Offices,201 Ferris Ave,Waxahachie,Ellis,75165,Administrative only,32.3880402,-96.8502181
Ellis County Coalition for Health Options dba Hope Clinic,Hope Clinic - Ennis,805 W Lampasas St,Ennis,Ellis,75119,Unknown,32.3193206,-96.6324766
"Fort Bend Family Health Center, Inc. dba AccessHealth",AccessHealth - Stafford Center,10435 Greenbough,Stafford,Fort Bend,77477,Primary Care Site,29.6206895,-95.5628465
"Fort Bend Family Health Center, Inc. dba AccessHealth",AccessHealth - Richmond Center,400 Austin St,Richmond,Fort Bend,77469,Primary Care Site,29.5785666,-95.7601837
"Fort Bend Family Health Center, Inc. dba AccessHealth","AccessHealth - WIC Specialty Site, Weimer",First United Methodist Church,Weimer,Colorado,78962,WIC only,29.7027251,-96.7807575
"Fort Bend Family Health Center, Inc. dba AccessHealth","AccessHealth - WIC Specialty Site, Columbus",520 Washington St,Columbus,Colorado,78934,WIC only,29.7044844,-96.5412093
"Fort Bend Family Health Center, Inc. dba AccessHealth","AccessHealth - WIC Specialty Site, Katy",1260 Pin Oak Rd,Katy,Fort Bend,77494,WIC only,29.7716048,-95.8184905
"Fort Bend Family Health Center, Inc. dba AccessHealth",AccessHealth - Missouri City Center,307 Texas Pkwy,Missouri City,Fort Bend,77489,Primary Care Site,29.6177769,-95.5363016
"Fort Bend Family Health Center, Inc. dba AccessHealth","AccessHealth - WIC Specialty Site, Wharton",210 S Rusk St,Wharton,Wharton,77488,WIC only,29.3095132,-96.0996988
"Fort Bend Family Health Center, Inc. dba AccessHealth","AccessHealth - WIC Specialty Site, Sealy",526 Ward St,Sealy,Austin,77474,WIC only,29.7775648,-96.1600311
"Fort Bend Family Health Center, Inc. dba AccessHealth","AccessHealth - WIC Specialty Site, Rosenberg",1720 B.F. Terry Blvd,Rosenberg,Fort Bend,77471,WIC only,29.5548204,-95.7668236
"Fort Bend Family Health Center, Inc. dba AccessHealth",AccessHealth - Mobile Clinic,400 Austin St,Richmond,Fort Bend,77469,Primary Care Site,29.5785666,-95.7601837
"Fort Bend Family Health Center, Inc. dba AccessHealth","AccessHealth - WIC Specialty Site, Prairie View",Owen Franklin Health Center,Prairie View,Waller,77446,WIC only,30.0942665,-95.99311
"Fort Bend Family Health Center, Inc. dba AccessHealth","AccessHealth - WIC Specialty Site, Eagle Lake",700 McCarty,Eagle Lake,Colorado,77434,WIC only,29.5931378,-96.3291437
"Fort Bend Family Health Center, Inc. dba AccessHealth",AccessHealth - Brookshire Center,531 FM 359 S,Brookshire,Waller,77423,Primary Care Site,29.7742962,-95.9507673
"Fort Bend Family Health Center, Inc. dba AccessHealth","AccessHealth - WIC Specialty Site, Bellville",800 Wendt St (Satellite Clinic),Bellville,Austin,77418,WIC only,29.9401082,-96.2538161
Fourth Ward dba Good Neighbor Healthcare Center,Good Neighbor Healthcare Center,190 Heights Blvd.,Houston,Harris,77007,Primary Care Site,29.7735866,-95.3966547
Frontera Healthcare Network,Frontera Healthcare Network - Menard Clinic,119 S Ellis,Menard,Menard,76859,Primary Care Site,30.9165983,-99.7862997
Frontera Healthcare Network,Frontera Healthcare Network - Mason Clinic,216 E College St,Mason,Mason,76856,Primary Care Site,30.7442478,-99.2287222
Frontera Healthcare Network,Frontera Healthcare Network - Junction Clinic,509 College St,Junction,Kimble,76849,Primary Care Site,30.4883105,-99.7658338
Frontera Healthcare Network,Frontera Healthcare Network - Eden Clinic,551 Eaker St,Eden,Concho,76837,Primary Care Site,31.2206232,-99.8469804
Frontera Healthcare Network,Frontera Healthcare Network - Eden Dental,212 Jackson St,Eden,Concho,76837,Other services only,31.2157844,-99.8452628
Frontera Healthcare Network,Frontera Healthcare Network - Brady Clinic,2205 S Bridge St,Brady,McCulloch,76825,Primary Care Site,31.1096221,-99.3331056
Frontera Healthcare Network,Frontera Healthcare Network - Brady Dental,1211 S Bridge St,Brady,McCulloch,76825,Other services only,31.1260117,-99.3349878
"Gateway Community Health Center, Inc","Gateway Community Health Center, Inc. - Hebbronville Clinic",473 State Hwy 285,Hebbronville,Jim Hogg,78361,Primary Care Site,27.3564843,-98.7502031
"Gateway Community Health Center, Inc","Gateway Community Health Center, Inc. - Mobile Dental Clinic",210 N Rathmell Ave,Zapata,Zapata,78076,Other services only,26.9016278,-99.2690737
"Gateway Community Health Center, Inc","Gateway Community Health Center, Inc. - Zapata Clinic",210 N Rathmell Ave,Zapata,Zapata,78076,Primary Care Site,26.9016278,-99.2690737
"Gateway Community Health Center, Inc","Gateway Community Health Center, Inc. - South Clinic",2007 S Zapata Hwy,Laredo,Webb,78046,Primary Care Site,27.4786261,-99.4730613
"Gateway Community Health Center, Inc","Gateway Community Health Center, Inc.",1515 Pappas St,Laredo,Webb,78041,Primary Care Site,27.5355416,-99.4762006
"Gulf Coast Health Center, Inc.",Gulf Coast Health Center - Silsbee,710 Hwy 327 E,Silsbee,Hardin,77656,Primary Care Site,30.3488791,-94.1907474
"Gulf Coast Health Center, Inc.",Gulf Coast Health Center - Port Arthur,2548 Memorial Blvd,Port Arthur,Jefferson,77640,Primary Care Site,29.9044919,-93.9356155
"Gulf Coast Health Center, Inc.",Gulf Coast Health Center - West Side,601B W Rev Dr Ransom Howard,Port Arthur,Jefferson,77640,Primary Care Site,29.8658461,-93.9452432
"Gulf Coast Health Center, Inc.",Gulf Coast Health Center - Orange,1301 W Park Ave,Orange,Orange,77630,Primary Care Site,30.0988624,-93.7429462
"Gulf Coast Health Center, Inc.",Gulf Coast Health Center - Jasper,103 W Gibson St,Jasper,Jasper,75951,Primary Care Site,30.9084829,-94.0001617
Harris Health System,Harris Health System - Star of Hope Cornerstone,2575 Reed Rd,Houston,Harris,77054,Primary Care Site,29.6596741,-95.3925105
Harris Health System,Harris Health System - Jackson Hinds Gardens,607 Thornton Rd,Houston,Harris,77018,Primary Care Site,29.8323971,-95.4089064
Harris Health System,Harris Health System - Crossroads,3827 Broadway Blvd,Houston,Harris,77017,Enabling services only,29.6867314,-95.2770223
Harris Health System,Harris Health System - Open Door Mission,5803 Harrisburg Blvd,Houston,Harris,77011,Primary Care Site,29.7407579,-95.3166834
Harris Health System,Harris Health System - Harmony House Respite Center,602 Girard St,Houston,Harris,77007,Primary Care Site,29.7676256,-95.3640288
Harris Health System,Harris Health System - Salvation Army Adult Rehabilitation Center,2118 Washington Ave,Houston,Harris,77007,Primary Care Site,29.7683776,-95.3802841
Harris Health System,Harris Health System - Lord of the Streets,3401 Fannin St,Houston,Harris,77004,Primary Care Site,29.739528,-95.3769851
Harris Health System,Harris Health System - Salvation Army Family Residence,1603 McGowen St,Houston,Harris,77004,Primary Care Site,29.7423929,-95.3684794
Harris Health System,Harris Health System - Compass,1212 Prairie St,Houston,Harris,77002,Enabling services only,29.7591828,-95.3599936
Harris Health System,Harris Health System - Salvation Army Sally's House,1717 Congress St,Houston,Harris,77002,Primary Care Site,29.7587859,-95.3536077
Harris Health System,Harris Health System - SEARCH,2015 Congress Ave,Houston,Harris,77002,Enabling services only,29.756857,-95.3514668
Harris Health System,Harris Health System - Star of Hope Mission Men's Development Center,1811 Ruiz St,Houston,Harris,77002,Primary Care Site,29.7606139,-95.3515034
"Healing Hands Ministries, Inc.",Healing Hands Ministries Inc. - Greenville,8515 Greenville Ave,Dallas,Dallas,75243,Primary Care Site,32.8946471,-96.754342
"Healing Hands Ministries, Inc.",Healing Hands Ministries Inc. - Vickery,5750 Pineland,Dallas,Dallas,75231,Primary Care Site,32.877968,-96.7580102
Health Center of Southeast Texas,Health Center of Southeast Texas - Shepherd,1651 South Byrd Avenue,Shepherd,San Jacinto,77371,Primary Care Site,30.492563,-94.999059
Health Center of Southeast Texas,Health Center of Southeast Texas,307 N. William Barnett Ave,Cleveland,Liberty,77327,Primary Care Site,30.3442688,-95.0839054
Health Opportunities for the People of East Texas dba HOPE Project,The HOPE Project,157 Wall St,Tenaha,Shelby,75974,Primary Care Site,31.9444732,-94.2444941
Health Opportunities for the People of East Texas dba HOPE Project,The HOPE Project - Dental,164 Wall St,Tenaha,Shelby,75974,Other services only,31.9440269,-94.244731
Health Opportunities for the People of East Texas dba HOPE Project,The HOPE Project - Community Medicine,620 Tenaha St,Center,Shelby,75935,Primary Care Site,31.8044031,-94.187718
"Health Services of North Texas, Inc.",Health Services of North Texas - Denton South Center,3537 South IH 35,Denton,Denton,76210,Primary Care Site,33.1767294,-97.090607
"Health Services of North Texas, Inc.",Health Services of North Texas - Denton Medical Center,4310 Mesa Dr,Denton,Denton,76207,Primary Care Site,33.2350615,-97.1770281
"Health Services of North Texas, Inc.",Health Services of North Texas - Denton Medical Center,4308 Mesa Dr,Denton,Denton,76207,Primary Care Site,33.2347868,-97.1768866
"Health Services of North Texas, Inc.",Health Services of North Texas - Denton Medical Center,4304 Mesa Dr,Denton,Denton,76207,Primary Care Site,33.234491,-97.1766665
"Health Services of North Texas, Inc.",Health Services of North Texas - Headquarters,4401 N IH 35,Denton,Denton,76207,Enabling services only,33.2619717,-97.1779705
"Health Services of North Texas, Inc.",Health Services of North Texas - Elm Street Center,821 N Elm St,Denton,Denton,76201,Primary Care Site,33.2217627,-97.1337976
"Health Services of North Texas, Inc.",Health Services of North Texas - Wylie Children's Medical Clinic,303 S Hwy 78,Wylie,Collin,75098,Primary Care Site,33.0245372,-96.493143
"Health Services of North Texas, Inc.",Health Services of North Texas - Collin County Center,2540 K Ave,Plano,Collin,75074,Primary Care Site,33.0324581,-96.697858
"Health Services of North Texas, Inc.",Health Services of North Texas - Plano Children's Medical Clinic,1407 14th St,Plano,Collin,75074,Primary Care Site,33.0185877,-96.6943622
Healthcare for the Homeless - Houston,Caroline Street Clinic,1934 Caroline,Houston,Harris,77002,Primary Care Site,29.7482658,-95.3684032
Healthcare for the Homeless - Houston,Star of Hope Men's Development Center,1811 Ruiz,Houston,Harris,77002,Primary Care Site,29.7606139,-95.3515034
Healthcare for the Homeless - Houston,Cathedral Clinic,1212 Prairie Street,HOUSTON,Harris,,Primary Care Site,29.7591828,-95.3599936
Heart of Texas Community Health Center dba Family Health Center,Family Health Center - West Waco Community Clinic,600 W State Hwy 6,Waco,McLennan,76712,Primary Care Site,31.5168722,-97.2028236
Heart of Texas Community Health Center dba Family Health Center,Family Health Center - Women's Health Center,120 Hillcrest Medical Blvd,Waco,McLennan,76712,Primary Care Site,31.487599,-97.1577729
Heart of Texas Community Health Center dba Family Health Center,Family Health Center - Community Clinic at MCC,4601 N 19th St,Waco,McLennan,76708,Primary Care Site,31.58961,-97.1799039
Heart of Texas Community Health Center dba Family Health Center,Family Health Center - MacArthur Pediatrics,2201 MacArthur Dr,Waco,McLennan,76708,Primary Care Site,31.5558043,-97.1784623
Heart of Texas Community Health Center dba Family Health Center,Family Health Center - Family Counseling and Children's Services (At Main Site),1600 Providence Dr,Waco,McLennan,76707,Primary Care Site,31.5591889,-97.152823
Heart of Texas Community Health Center dba Family Health Center,Family Health Center - Madison Cooper Community Clinic Medical & Dental,1610 Providence Dr,Waco,McLennan,76707,Primary Care Site,31.558733,-97.1537335
Heart of Texas Community Health Center dba Family Health Center,Family Health Center - Main Site,1600 Providence Dr,Waco,McLennan,76707,Primary Care Site,31.5591889,-97.152823
Heart of Texas Community Health Center dba Family Health Center,Family Health Center - Bell's Hill Community Clinic,911 S 20th St,Waco,McLennan,76706,Primary Care Site,31.5377088,-97.1379036
Heart of Texas Community Health Center dba Family Health Center,Family Health Center - South 18th Street Community Clinic Medical & Dental,1800 Gurley Ln,Waco,McLennan,76706,Primary Care Site,31.5245133,-97.1185881
Heart of Texas Community Health Center dba Family Health Center,Family Health Center - Bellmead Community Clinic,3400 Bellmead Dr,Bellmead,McLennan,76705,Primary Care Site,31.5926991,-97.0981379
Heart of Texas Community Health Center dba Family Health Center,Family Health Center - Elm Avenue Community Clinic Medical & Dental,609 Elm Ave,Waco,McLennan,76704,Primary Care Site,31.5659435,-97.1229572
Heart of Texas Community Health Center dba Family Health Center,Family Health Center - Martin Luther King Community Clinic,1911 N Martin Luther King Blvd,Waco,McLennan,76704,Primary Care Site,31.5772836,-97.1424581
Heart of Texas Community Health Center dba Family Health Center,Family Health Center - Austin Avenue Clinic,110 S 12th St,Waco,McLennan,76701,Primary Care Site,31.5511115,-97.1377817
Heart of Texas Community Health Center dba Family Health Center,Family Health Center - Meyer Center Community Clinic,1226 Washington Ave,Waco,McLennan,76701,Primary Care Site,31.5511062,-97.1395878
Heart of Texas Community Health Center dba Family Health Center,Family Health Center - McGregor Community Clinic Medical & Dental,500 S Johnson Dr,McGregor,McLennan,76657,Primary Care Site,31.4313617,-97.4174766
Heart of Texas Community Health Center dba Family Health Center,Family Health Center - Community Clinic at Santa Fe,600 S 25th St,Temple,Bell,76504,Primary Care Site,31.0933621,-97.3590245
Houston Area Community Services dba Avenue 360,Avenue 360 - Spring Cypress,17010 Sugar Pine Dr,Houston,Harris,77090,Primary Care Site,30.0107657,-95.4596176
Houston Area Community Services dba Avenue 360,Avenue 360 - Baustista Pediatric Health Center,902 Frostwood,Houston,Harris,77024,Primary Care Site,29.7801026,-95.5467989
Houston Area Community Services dba Avenue 360,Houston Area Community Services dba Avenue 360,2150 W 18th St,Houston,Harris,77008,Primary Care Site,29.8013376,-95.4370871
Houston Area Community Services dba Avenue 360,Avenue 360 - Bering Omega Dental Clinic,1427 Hawthorne St,Houston,Harris,77006,Other services only,29.7424322,-95.3967652
Houston Community Health Centers dba Vecino Health Centers,Vecino -  Airline Children's Clinic,5808 Airline Dr,Houston,Harris,77076,Primary Care Site,29.8503515,-95.3838428
Houston Community Health Centers dba Vecino Health Centers,Vecino -  Denver Harbor Family Medicine Clinic,424 Hahlo St,Houston,Harris,77020,Primary Care Site,29.780584,-95.3097941
Houston Community Health Centers dba Vecino Health Centers,Vecino - Denver Harbor Dental Clinic,424B Hahlo St,Houston,Harris,77020,Primary Care Site,29.7803836,-95.3098829
"La Esperanza Clinic, Inc.","La Esperanza Clinic, Inc.",1610 S Chadbourne,San Angelo,Tom Green,76903,Primary Care Site,31.4446105,-100.4341634
"La Esperanza Clinic, Inc.","La Esperanza Clinic, Inc. - Administrative Offices",2033 W Beauregard,San Angelo,Tom Green,76901,Administrative only,31.4513885,-100.4634979
"La Esperanza Clinic, Inc.","La Esperanza Clinic, Inc. - Lakeview Clinic",35 E 31st St,San Angelo,Tom Green,76903,Primary Care Site,31.4918525,-100.4543644
Legacy Community Health Services,Legacy - KIPP Southwest Campus,10711 KIPP Way,Houston,Harris,77099,Primary Care Site,29.6689606,-95.5652967
Legacy Community Health Services,Legacy - KIPP CONNECT,6700 Bellaire Bvd,Houston,Harris,77074,Primary Care Site,29.7059163,-95.5019875
Legacy Community Health Services,Legacy - KIPP SHARP,8430 Westglen Dr,Houston,Harris,77063,Primary Care Site,29.7249906,-95.5122754
Legacy Community Health Services,Legacy - KIPP Sunnyside Campus,11000 Scott St,Houston,Harris,77047,Primary Care Site,29.6376242,-95.3695378
Legacy Community Health Services,Legacy - KIPP East End Campus,5402 Lawndale St,Houston,Harris,77023,Primary Care Site,29.7266083,-95.3228619
Legacy Community Health Services,Legacy - KIPP North Campus,500 Tidwell,Houston,Harris,77022,Primary Care Site,29.8437603,-95.3695015
Legacy Community Health Services,Legacy - KIPP Third Ward Campus,5400 MLK Blvd,Houston,Harris,77021,Primary Care Site,29.7010822,-95.3359763
Legacy Community Health Services,Legacy - South Park Campus,4450 Highland Ave,Beaumont,Jefferson,77705,Primary Care Site,30.0431447,-94.0858142
Legacy Community Health Services,Legacy - Central Beaumont,450 N 11th St,Beaumont,Jefferson,77702,Primary Care Site,30.0850398,-94.1294277
Legacy Community Health Services,Legacy - Deer Park,3430 Center St,Deer Park,Harris,77536,Primary Care Site,29.6799918,-95.1246608
Legacy Community Health Services,Legacy - San Jacinto Campus,4301 Garth Rd,Baytown,Harris,77521,Primary Care Site,29.7682131,-94.9801448
Legacy Community Health Services,Legacy - Bissonnet Campus,12667 Bissonnet St,Houston,Harris,77099,Primary Care Site,29.6767825,-95.6016268
Legacy Community Health Services,Legacy - YES PREP White Oak,5620 W Tidwell Rd,Houston,Harris,77091,Primary Care Site,29.8508591,-95.471744
Legacy Community Health Services,Legacy - KIPP West,8500 Texas 6,Houston,Harris,77083,Primary Care Site,29.9038401,-95.6329516
Legacy Community Health Services,Legacy - Mapleridge Campus,6550 Mapleridge,Houston,Harris,77081,Primary Care Site,29.7097119,-95.474738
Legacy Community Health Services,Legacy - KIPP Northeast,9606 Mesa Dr,Houston,Harris,77078,Primary Care Site,29.851443,-95.2612613
Legacy Community Health Services,Legacy - Baker-Ripley Campus,6500 Rookin St,Houston,Harris,77074,Primary Care Site,29.7111976,-95.4972008
Legacy Community Health Services,Legacy - Sharpstown (LSS),9401 Southwest Freeway,Houston,Harris,77074,Primary Care Site,29.6792157,-95.5377268
Legacy Community Health Services,Legacy - Sharpstown Rookin,6677 Rookin,Houston,Harris,77074,Primary Care Site,29.7073599,-95.4964535
Legacy Community Health Services,Legacy - Southwest Campus,6441 High Star,Houston,Harris,77074,Primary Care Site,29.710385,-95.4956061
Legacy Community Health Services,Legacy - YES PREP Gulfton,6565 De Moss Dr,Houston,Harris,77074,Primary Care Site,29.7068125,-95.4981829
Legacy Community Health Services,Legacy - YES PREP Southwest,4411 Anderson Rd,"Houston, TX",Harris,77053,Primary Care Site,29.6055082,-95.4428423
Legacy Community Health Services,Legacy - YES PREP North Forest,6602 Winfield Rd,Houston,Harris,77050,Primary Care Site,29.8984568,-95.2917338
Legacy Community Health Services,Legacy - YES PREP Southside,5515 S Loop E,Houston,Harris,77033,Primary Care Site,29.6884259,-95.3362411
Legacy Community Health Services,Legacy - YES PREP Brays Oaks,9000 W Bellfort Ave,Houston,Harris,77031,Primary Care Site,29.6571622,-95.5342404
Legacy Community Health Services,Legacy - Santa Clara Campus,5616 Lawndale St,Houston,Harris,77023,Primary Care Site,29.7261181,-95.3167038
Legacy Community Health Services,Legacy - Lyons Campus,3811 Lyons Ave,Houston,Harris,77020,Primary Care Site,29.7762137,-95.331552
Legacy Community Health Services,Legacy - YES PREP Fifth Ward,1305 Benson,Houston,Harris,77020,Primary Care Site,29.7740716,-95.3300621
Legacy Community Health Services,Legacy - KIPP Southeast,8805 Ferndale,Houston,Harris,77017,Primary Care Site,29.6683938,-95.2594831
Legacy Community Health Services,Legacy - YES PREP East End,8329 Lawndale St,Houston,Harris,77012,Primary Care Site,29.7160632,-95.2748144
Legacy Community Health Services,Legacy - Branard Campus,401 Branard St,Houston,Harris,77006,Primary Care Site,29.7365169,-95.3846775
Legacy Community Health Services,Legacy - Montrose Campus,1415 California St,Houston,Harris,77006,Primary Care Site,29.7450095,-95.3940369
Legacy Community Health Services,Legacy - Montrose Center Clinic,401 Branard St,Houston,Harris,77006,Primary Care Site,29.7365169,-95.3846775
Lone Star Circle of Care,Lone Star Circle - Family Care Center at Northwest,11111 Research Blvd,Austin,Travis,78759,Primary Care Site,30.4054411,-97.7437953
Lone Star Circle of Care,Lone Star Circle - Pediatrics at Stassney,730 W Stassney Ln,Austin,Travis,78745,Unknown,30.2091548,-97.7834734
Lone Star Circle of Care,Lone Star Circle - Ben White Health Clinic,1221 W Ben White Blvd,Austin,Travis,78704,Primary Care Site,30.2270116,-97.7787071
Lone Star Circle of Care,Lone Star Circle - Round Rock OB/GYN,2300 Round Rock Ave,Round Rock,Williamson,78681,Primary Care Site,30.5104905,-97.7140137
Lone Star Circle of Care,Lone Star Circle - Texas A&M Health Science Center,3950 N A.W. Grimes Blvd,Round Rock,Williamson,78665,Primary Care Site,30.5572963,-97.6457688
Lone Star Circle of Care,Lone Star Circle - Round Rock Health Clinic,2120 N Mays,Round Rock,Williamson,78664,Primary Care Site,30.529347,-97.6891516
Lone Star Circle of Care,Lone Star Circle - Family Care Center at Marble Falls,802 Ave J,Marble Falls,Burnet,78654,Primary Care Site,30.5779493,-98.275303
Lone Star Circle of Care,"Lone Star Circle - Dell Children's, Circle of Care Pediatrics at Hutto",123 Ed Schmidt Blvd,Hutto,Williamson,78634,Primary Care Site,30.5415533,-97.563773
Lone Star Circle of Care,Lone Star Circle - Dental Center,2411 Williams Dr,Georgetown,Williamson,78628,Primary Care Site,30.6597419,-97.6880067
Lone Star Circle of Care,Lone Star Circle - Lake Aire Medical Center,2423 Williams Dr,Georgetown,Williamson,78628,Primary Care Site,30.6605928,-97.6879643
Lone Star Circle of Care,Lone Star Circle - Georgetown Women's Center,1900 Scenic Dr,Georgetown,Williamson,78626,Primary Care Site,30.6271682,-97.6890244
Lone Star Circle of Care,"Lone Star Circle - Dell Children's, Circle of Care Pediatrics at Whitestone",1730 E Whitestone Blvd,Cedar Park,Williamson,78613,Primary Care Site,30.5282973,-97.8021703
Lone Star Circle of Care,Lone Star Circle - Bastrop Community Health Clinic,605 Old Austin Hwy,Bastrop,Bastrop,78602,Primary Care Site,30.1118749,-97.3382376
Lone Star Circle of Care,Lone Star Circle - Health Center at Taylor,601A Mallard Ln,Taylor,Williamson,76574,Primary Care Site,30.5902095,-97.4192509
Lone Star Circle of Care,Lone Star Circle - Pediatrics at Clear Creek,2300 S Clear Creek,Killeen,Bell,76549,Primary Care Site,31.1114856,-97.7992396
Lone Star Circle of Care,Lone Star Circle - Behavioral Health at Harker Heights,775 Indian Trl,Harker Heights,Bell,76548,Primary Care Site,31.0757884,-97.6516614
Lone Star Circle of Care,Lone Star Circle - Pediatrics at Harker Heights,200 Nola Ruth,Harker Heights,Bell,76548,Primary Care Site,31.0807974,-97.6407705
Lone Star Community Health Center dba Lone Star Family Health Center,Lone Star Family Health Center - Spring,440 Rayford Rd,Spring,Montgomery,77386,Primary Care Site,30.1262981,-95.4365897
Lone Star Community Health Center dba Lone Star Family Health Center,Lone Star Family Health Center - Willis,201 Lincoln Rdg,Willis,Montgomery,77318,Primary Care Site,30.4288698,-95.4920165
Lone Star Community Health Center dba Lone Star Family Health Center,Lone Star Family Health Center - Conroe,605 S Conroe Medical Dr,Conroe,Montgomery,77304,Primary Care Site,30.2854902,-95.4713987
Longview Wellness Center dba Wellness Pointe,Wellness Pointe - Kilgore,1711 South Henderson Blvd,Kilgore,Gregg,75662,Primary Care Site,32.373062,-94.8701751
Longview Wellness Center dba Wellness Pointe,Wellness Pointe - Gilmer,602 Titus St,Gilmer,Upshur,75644,Primary Care Site,32.7342045,-94.9447498
Longview Wellness Center dba Wellness Pointe,Wellness Pointe - Longview North,805 Medical Circle Dr,Longview,Gregg,75604,Primary Care Site,32.5351139,-94.7297536
Longview Wellness Center dba Wellness Pointe,Wellness Pointe - Longview South,2430 S High St,Longview,Gregg,75602,Primary Care Site,32.4629522,-94.7326438
Longview Wellness Center dba Wellness Pointe,Wellness Pointe - Longview,1107 E Marshall Ave,Longview,Gregg,75601,Primary Care Site,32.5038842,-94.7245963
Longview Wellness Center dba Wellness Pointe,Wellness Pointe - Longview Center,315 N Center St,Longview,Gregg,75601,Primary Care Site,32.4972892,-94.7395966
Los Barrios Unidos Community Clinic,"Los Barrios Unidos Community Clinic - Family, Women's Health, Dental, and WIC",809 Singleton Blvd,Dallas,Dallas,75212,Primary Care Site,32.7789297,-96.8363155
Los Barrios Unidos Community Clinic,Los Barrios Unidos Community Clinic - Pediatric Services,3111 Sylvan Ave,Dallas,Dallas,75212,Primary Care Site,32.7801673,-96.8361477
Los Barrios Unidos Community Clinic,Los Barrios Unidos Community Clinic - Urban Inter-Tribal Center of Texas WIC Clinic,1283 Record Crossing,Dallas,Dallas,75235,WIC only,32.8160041,-96.8614842
Los Barrios Unidos Community Clinic,Los Barrios Unidos Community Clinic - Health Center,4732 W Illinois St,Dallas,Dallas,75211,Primary Care Site,32.7203153,-96.9017765
"Martin Luther King Jr. Family Clinic, Inc. dba Foremost Family Health Centers",Foremost Family Health Center,"2922 Martin Luther King, Jr. Blvd",Dallas,Dallas,75215,Primary Care Site,32.7701812,-96.7653706
"Martin Luther King Jr. Family Clinic, Inc. dba Foremost Family Health Centers",Foremost Family Health Center - Balch Springs,3515 Shepherd Ln,Balch Spings,Dallas,75180,Primary Care Site,32.7216024,-96.6146805
Matagorda Episcopal Health Outreach Program,Matagorda Episcopal Health Outreach Program (MEHOP) - Administration,101 Avenue F N,Bay City,Matagorda,77414,Primary Care Site,29.0034325,-95.9718985
Matagorda Episcopal Health Outreach Program,MEHOP - Dental,205 B Ida Ave,Bay City,Matagorda,77414,Administrative only,29.0037879,-95.9715474
Matagorda Episcopal Health Outreach Program,MEHOP - Family Medicine & Behavioral Health,1700 Golden Ave,Bay City,Matagorda,77414,Primary Care Site,28.99409,-95.9700812
Matagorda Episcopal Health Outreach Program,MEHOP - Women & Children's,111 Ave F,Bay City,Matagorda,77414,Primary Care Site,29.0026354,-95.9714855
Matagorda Episcopal Health Outreach Program,MEHOP Clinic-Wharton,10141 US 59 Hwy,Wharton,Wharton,,Unknown,29.3285974,-96.1174149
Midland Community Healthcare Services,Midland Community Healthcare Services - Women's Services Clinic,400 Rosalind Redfern Grover Pkwy,Midland,Midland,79701,Primary Care Site,31.9961626,-102.0995032
Midland Community Healthcare Services,Midland Community Healthcare Services - PBCC Sattelite Clinic,401 E Illinois Ave,Midland,Midland,79701,Primary Care Site,32.0001398,-102.0704445
Midland Community Healthcare Services,Midland Community Healthcare Services - Coleman Dental Services,801 E Florida St,Midland,Midland,79701,Primary Care Site,31.9899071,-102.0649104
Midland Community Healthcare Services,Midland Community Healthcare Services - Pediatric Services,2500 Delano St,Midland,Midland,79701,Primary Care Site,31.9938742,-102.1037755
Midland Community Healthcare Services,Midland Community Healthcare Services - Viola M. Coleman Clinic,801 E Florida St,Midland,Midland,79701,Primary Care Site,31.9899071,-102.0649104
Mission East Dallas,Mission East Dallas - Medical,2914 Oates Dr,Dallas,Dallas,75228,Primary Care Site,32.8210609,-96.6647517
Mission East Dallas,Mission East Dallas - Dental,4550 Gus Thomasson Rd,Mesquite,Dallas,75150,Unknown,32.825842,-96.6470255
Mt. Enterprise Community Health Clinic dba Crossroads Family Care,Crossroads Family Care - Palestine,205 E Brazos St,Palestine,Anderson,75801,Primary Care Site,31.7540133,-95.6277852
Mt. Enterprise Community Health Clinic dba Crossroads Family Care,Crossroads Family Care - Mt. Enterprise,P.O. Box 489,Mt. Enterprise,Rusk,75681,Primary Care Site,31.9179473,-94.6810439
Mt. Enterprise Community Health Clinic dba Crossroads Family Care,Crossroads Family Care - Dental,1115 Hwy 259 S,Henderson,Rusk,75654,Primary Care Site,32.1532156,-94.7993802
Mt. Enterprise Community Health Clinic dba Crossroads Family Care,Crossroads Family Care - Henderson,1115 Hwy 259 S,Henderson,Rusk,75654,Primary Care Site,32.1532156,-94.7993802
"North Central Texas Community Health Care Center, Inc. dba Community Healthcare Center",Community Healthcare Center,"200 Martin Luther King, Jr. Blvd",Wichita Falls,Wichita,76307,Primary Care Site,33.9202138,-98.4910208
"North Central Texas Community Health Care Center, Inc. dba Community Healthcare Center",Community Healthcare Center - Family Medicine Residency Site,1301 3rd St,Wichita Falls,Wichita,76301,Primary Care Site,33.9129958,-98.5021211
"North Central Texas Community Health Care Center, Inc. dba Community Healthcare Center",Community Healthcare Center - Juarez Medical Clinic,1000 A Juarez St,Wichita Falls,Wichita,76301,Primary Care Site,33.9124436,-98.4739434
"North Central Texas Community Health Care Center, Inc. dba Community Healthcare Center",Community Healthcare Center - Phyllis Hiraki Dental Clinic,110 Lee St,Wichita Falls,Wichita,76301,Primary Care Site,33.9194269,-98.4923929
"North Central Texas Community Health Care Center, Inc. dba Community Healthcare Center",Community Healthcare Center - McKinney Clinic at Virginia Parkway,120 S Central Expressway,McKinney,Collin,75070,Primary Care Site,33.19793,-96.6404708
"North Texas Area Community Health Centers, Inc.",North Texas Area Community Health Centers - Northside Community Health Center,2106 N Main St,Fort Worth,Tarrant,76164,Primary Care Site,32.7831485,-97.3488285
"North Texas Area Community Health Centers, Inc.",North Texas Area Community Health Centers - Southeast Community Health Center,2909 Mitchell Blvd,Fort Worth,Tarrant,76105,Primary Care Site,32.7167695,-97.2884155
"North Texas Area Community Health Centers, Inc.",North Texas Area Community Health Centers - Arlington Community Health Center,979 N Cooper,Arlington,Tarrant,76011,Primary Care Site,32.7489755,-97.112323
Nuestra Clinica del Valle,Nuestra Clinica del Valle - PSJA School Based Clinic,2900 N Raul Longoria Rd,San Juan,Hidalgo,78589,Primary Care Site,26.2221628,-98.1469507
Nuestra Clinica del Valle,Nuestra Clinica del Valle - San Juan,801 W 1st St,San Juan,Hidalgo,78589,Primary Care Site,26.1950551,-98.1650426
Nuestra Clinica del Valle,Nuestra Clinica del Valle - Women's Health Clinic,806 W 3rd St,San Juan,Hidalgo,78589,Primary Care Site,26.1941526,-98.1658505
Nuestra Clinica del Valle,Nuestra Clinica del Valle - Roma,2891 E Grant,Roma,Starr,78584,Primary Care Site,26.4086206,-98.9790858
Nuestra Clinica del Valle,Nuestra Clinica del Valle - Rio Grande City,600 N Garza St,Rio Grande City,Starr,78582,Primary Care Site,26.3821422,-98.8145278
Nuestra Clinica del Valle,Nuestra Clinica del Valle - Memorial,201 S Los Ebanos Blvd,Alton,Hidalgo,78574,Primary Care Site,26.2882519,-98.330366
Nuestra Clinica del Valle,Nuestra Clinica del Valle - Mission,611 N Bryan Rd,Mission,Hidalgo,78572,Primary Care Site,26.327629,-98.2906134
Nuestra Clinica del Valle,Nuestra Clinica del Valle - Mercedes,1500 First St,Mercedes,Hidalgo,78570,Primary Care Site,26.1510254,-97.9245704
Nuestra Clinica del Valle,Nuestra Clinica del Valle - San Carlos,300 N 86th St,Edinburg,Hidalgo,78541,Primary Care Site,26.2962669,-98.0684904
Nuestra Clinica del Valle,Nuestra Clinica del Valle - Edcouch,1518 E Santa Rosa,Edcouch,Hidalgo,78538,Primary Care Site,26.2939187,-97.9460884
Nuestra Clinica del Valle,Nuestra Clinica del Valle - Donna,301 S 17th St,Donna,Hidalgo,78537,Primary Care Site,26.1664657,-98.0462201
Pasadena Health Center,Pasadena Health Center - Dental,908 Southmore,Pasadena,Harris,77502,Primary Care Site,29.6897727,-95.2010877
Pasadena Health Center,Pasadena Health Center - Medical,908 Southmore,Pasadena,Harris,77502,Primary Care Site,29.6897727,-95.2010877
People's Community Clinic,People's Community Clinic,1101 Camino la Costa,Austin,Travis,78752,Primary Care Site,30.32414,-97.6993963
People's Community Clinic,People's Community Clinic - Austin Children's Shelter,4800 Manor Rd,Austin,Travis,78723,Other services only,30.2966464,-97.6902099
People's Community Clinic,People's Community Clinic - Center for Women's Health,2909 N IH 35,Austin,Travis,78722,Primary Care Site,30.2874814,-97.7232111
People's Community Clinic,People's Community Clinic - Manor Mustang Health Center,10335 US Hwy 290 E,Manor,Travis,78653,Primary Care Site,30.1868362,-96.568797
"Presidio County Health Services, Inc. dba Preventative Care Health Services",Preventative Care - Presidio County Medical Clinic,1501 N Erma Ave,Presidio,Presidio,79845,Primary Care Site,29.5757655,-104.3675096
"Presidio County Health Services, Inc. dba Preventative Care Health Services",Preventative Care - Marfa Community Health Clinic,406 S Summer St,Marfa,Presidio,79843,Primary Care Site,30.3064057,-104.0259863
"Presidio County Health Services, Inc. dba Preventative Care Health Services",Preventative Care - Family Health Services of Alpine,1605 N Fort Davis Hwy,Alpine,Brewster,79830,Primary Care Site,30.3707787,-103.6676813
Project Vida Health Center,Project Vida Health Center - Montana Vista Health Center,14900 Greg Dr,El Paso,El Paso,79938,Primary Care Site,31.7975735,-106.160938
Project Vida Health Center,Project Vida Health Center - Montana Vista Mobile Dental Clinic,14900 Greg Dr,El Paso,El Paso,79938,Unknown,31.7975735,-106.160938
Project Vida Health Center,Project Vida Health Center - La Clinica Guadalupana,901 Ascension,El Paso,El Paso,79928,Primary Care Site,31.7202937,-106.1649335
Project Vida Health Center,Project Vida Health Center - Family Service of El Paso,6040 Surety Dr,El Paso,El Paso,79905,Primary Care Site,31.7798415,-106.4120396
Project Vida Health Center,Project Vida Health Center - Mobile Clinic,3612 Rivera Ave,El Paso,El Paso,79905,Unknown,31.7710327,-106.4503959
Project Vida Health Center,Project Vida Health Center - Roger Naftzger Clinic,3612 Pera Ave,El Paso,El Paso,79905,Primary Care Site,31.7720428,-106.4502956
Project Vida Health Center,Project Vida Health Center - Northeast Dental Clinic,4875 Maxwell Ave,El Paso,El Paso,79904,Primary Care Site,31.867292,-106.4287628
Project Vida Health Center,Project Vida Health Center - Northeast Family Practice,4875 Maxwell Ave,El Paso,El Paso,79904,Primary Care Site,31.867292,-106.4287628
Project Vida Health Center,Project Vida Health Center - Hueco Health Center,3501 Hueco Ave,El Paso,El Paso,79903,Primary Care Site,31.785891,-106.452247
Project Vida Health Center,Project Vida Health Center - Sierra Blanca Clinic,500 E Walling,Sierra Blanca,Hudspeth,79851,Primary Care Site,31.182907,-105.3532308
Project Vida Health Center,Project Vida Health Center - Fort Hancock Clinic,561 S Knox,Fort Hancock,Hudspeth,79839,Primary Care Site,31.2948446,-105.8487603
Project Vida Health Center,Project Vida Health Center - Dell City Clinic,104 S Dodson St,Dell City,Hudspeth,79837,Primary Care Site,31.9380077,-105.2035063
"Regence Health Network, Inc.",Regence - Amarillo Martin Road Medical and Dental Clinic,850 Martin Rd,Amarillo,Potter,79107,Primary Care Site,35.2237692,-101.8114063
"Regence Health Network, Inc.",Regence - Plainview Administration and Dental Clinic,2801 W 8th St,Plainview,Hale,79072,Primary Care Site,34.1873224,-101.7373462
"Regence Health Network, Inc.",Regence - Plainview Anderson Suites,2601 Dimmitt Rd,Plainview,Hale,79072,Primary Care Site,34.2065998,-101.7328971
"Regence Health Network, Inc.",Regence - Hereford Medical and Dental Clinic,125 W Park Ave,Hereford,Deaf Smith,79045,Primary Care Site,34.8212971,-102.4073437
"Regence Health Network, Inc.",Regence - Friona WIC Clinic,616 Euclid,Friona,Parmer,79037,WIC only,34.6370534,-102.7195407
"Regence Health Network, Inc.",Regence - Ralls WIC Clinic,623 Tilford,Ralls,Crosby,79357,WIC only,33.6801073,-101.3856845
"Regence Health Network, Inc.",Regence - Muleshoe WIC Clinic,104 W Second St,Muleshoe,Bailey,79347,WIC only,34.2265489,-102.7256096
"Regence Health Network, Inc.",Regence - Littlefield WIC Clinic,500 E 6th St,Littlefield,Lamb,79339,WIC only,33.9201197,-102.3310418
"Regence Health Network, Inc.",Regence - Floydada WIC Clinic,319 S King Cotton Row,Floydada,Floyd,79235,WIC only,33.9845232,-101.3376574
"Regence Health Network, Inc.",Regence - Amarillo Outreach Clinic,723 N Taylor,Amarillo,Potter,79107,Primary Care Site,35.2208907,-101.8336388
"Regence Health Network, Inc.",Regence - Amarillo Coulter St Clinic,1301 S Coulter St,Amarillo,Potter,79106,Primary Care Site,35.2012467,-101.9219084
"Regence Health Network, Inc.",Regence - Tulia WIC Clinic,104 SE 2nd St,Tulia,Swisher,79088,WIC only,34.5356726,-101.7639713
"Regence Health Network, Inc.",Regence - Plainview WIC Clinic,2801 W 8th St,Plainview,Hale,79072,WIC only,34.1873224,-101.7373462
"Regence Health Network, Inc.",Regence - Olton WIC Clinic,206 E 11th,Olton,Lamb,79064,WIC only,34.1783432,-102.1292442
"Regence Health Network, Inc.",Regence - Hereford WIC Clinic,125 W Park Ave,Hereford,Deaf Smith,79045,WIC only,34.8212971,-102.4073437
"Regence Health Network, Inc.",Regence - Dimmitt WIC Clinic,113 W Bedford,Dimmitt,Castro,79027,WIC only,34.5508292,-102.3132581
Shackelford County Community Resource Center dba ResourceCare,ResourceCare - Merkel,217 Edwards St,Merkel,Taylor,79536,Primary Care Site,32.4722622,-100.011502
Shackelford County Community Resource Center dba ResourceCare,ResourceCare - Merkel Dental,217 Edwards St,Merkel,Taylor,79536,Primary Care Site,32.4722622,-100.011502
Shackelford County Community Resource Center dba ResourceCare,ResourceCare - Clyde,1712 N Access Rd 79510,Clyde,Taylor,79510,Primary Care Site,32.4127852,-99.4886542
Shackelford County Community Resource Center dba ResourceCare,ResourceCare - Clyde Dental,1712 N Access Rd,Clyde,Callahan,79510,Primary Care Site,32.4127852,-99.4886542
Shackelford County Community Resource Center dba ResourceCare,ResourceCare - Baird,128 W 4th St,Baird,Callahan,79504,Primary Care Site,32.3953155,-99.3950843
Shackelford County Community Resource Center dba ResourceCare,ResourceCare - Cross Plains,301 S Main,Cross Plains,Callahan,76443,Primary Care Site,32.1230777,-99.1650301
Shackelford County Community Resource Center dba ResourceCare,ResourceCare - Cross Plains Dental,200 N Main St,Cross Plains,Callahan,76443,Primary Care Site,32.1262535,-99.1650647
Shackelford County Community Resource Center dba ResourceCare,ResourceCare - Albany,725 Pate St,Albany,Shackelford,76430,Primary Care Site,32.7316832,-99.2883039
Shackelford County Community Resource Center dba ResourceCare,ResourceCare - Albany Dental,725 Pate St,Albany,Shackelford,76430,Primary Care Site,32.7316832,-99.2883039
Shackelford County Community Resource Center dba ResourceCare,ResourceCare - Breckenridge,2802 W Walker St,Breckenridge,Stephens,76424,Primary Care Site,32.7578933,-98.9363068
Shackelford County Community Resource Center dba ResourceCare,ResourceCare - Breckenridge Dental,2802 W Walker St,Breckenridge,Stephens,76424,Primary Care Site,32.7578933,-98.9363068
"South Central Houston Action Council, Inc. dba Central Care Integrated Health Services",Central Care Integrated Health Services - North Forest/Humble Clinic,14929 Old Humble Rd,Houston,Harris,77396,Primary Care Site,29.9386083,-95.2860262
"South Central Houston Action Council, Inc. dba Central Care Integrated Health Services",Central Care Integrated Health Services - Hillcroft (Southwest),14087 S Main St,Houston,Harris,77035,Primary Care Site,29.6350603,-95.4949706
"South Central Houston Action Council, Inc. dba Central Care Integrated Health Services",Central Care Integrated Health Services - MLK,"8610 Martin Luther King, Jr. Blvd",Houston,Harris,77033,Primary Care Site,29.6581325,-95.3376209
"South Central Houston Action Council, Inc. dba Central Care Integrated Health Services",Central Care Integrated Health Services - 96 Berry Rd,96 Berry Rd,Houston,Harris,77022,Primary Care Site,29.8371426,-95.3765135
"South Central Houston Action Council, Inc. dba Central Care Integrated Health Services",Central Care Integrated Health Services - Acres Home,1102A Pinemont,Houston,Harris,77018,Primary Care Site,29.8413749,-95.4232248
"South Central Houston Action Council, Inc. dba Central Care Integrated Health Services",Central Care Integrated Health Services - Riverside,3315 Delano St,Houston,Harris,77004,Primary Care Site,29.7311756,-95.3618108
"South Plains Rural Health Services, Inc.",South Plains Rural Health Services - Howard County Community Health Center,1300 Gregg St,Big Spring,Howard,79720,Primary Care Site,32.2415854,-101.4746243
"South Plains Rural Health Services, Inc.",South Plains Rural Health Services,1000 FM 300,Levelland,Hockley,79336,Primary Care Site,33.5716546,-102.3797706
"South Plains Rural Health Services, Inc.",South Plains Rural Health Services - Dental,1000 FM 300,Levelland,Hockley,79336,Primary Care Site,33.5716546,-102.3797706
"South Plains Rural Health Services, Inc.",South Plains Rural Health Services - Lamesa Dental,1005 N 16th St,Lamesa,Dawson,79331,Primary Care Site,32.7454207,-101.9638959
"South Plains Rural Health Services, Inc.",South Plains Rural Health Services - Lamesa Primary Care Clinic,1502 N Avenue K,Lamesa,Dawson,79331,Primary Care Site,32.7434434,-101.9661476
"South Texas Rural Health Services, Inc.",South Texas Rural Health Services - Carrizo Springs Medical/Dental,902 S 5th St,Carrizo Springs,Dimmit,78834,Primary Care Site,28.5146948,-99.8667807
"South Texas Rural Health Services, Inc.",South Texas Rural Health Services - Devine Medical/Dental,1010 W Hondo Ave,Devine,Medina,78016,Primary Care Site,29.1476629,-98.9156684
"South Texas Rural Health Services, Inc.",South Texas Rural Health Services - Administration,611 Thornton,Cotulla,La Salle,78014,Primary Care Site,28.428854,-99.2310813
"South Texas Rural Health Services, Inc.",South Texas Rural Health Services - Cotulla Medical/Dental,105 S Stewart,Cotulla,La Salle,78014,Primary Care Site,28.4340027,-99.2361675
"South Texas Rural Health Services, Inc.",South Texas Rural Health Services - Hondo Medical,2912 Avenue E,Hondo,Medina,78861,Primary Care Site,29.3375238,-99.1339197
"South Texas Rural Health Services, Inc.",South Texas Rural Health Services - Eagle Pass Wellness Center,2250 N Veterans Blvd,Eagle Pass,Maverick,78852,Primary Care Site,28.7248194,-100.4761458
"South Texas Rural Health Services, Inc.",South Texas Rural Health Services - Carrizo Springs Wellness Center,902-B South 5th Street,Carrizo Springs,Dimmit,78834,Primary Care Site,28.5146371,-99.8668019
"South Texas Rural Health Services, Inc.",South Texas Rural Health Services - Big Wells Medical,1502 Grand Ave,Big Wells,Dimmit,78830,Primary Care Site,28.5731743,-99.5699126
"South Texas Rural Health Services, Inc.",South Texas Rural Health Services - Uvalde Wellness Center,1815 Garnerfield Rd,Uvalde,Uvalde,78801,Primary Care Site,29.218022,-99.7540807
"South Texas Rural Health Services, Inc.",South Texas Rural Health Services - Pearsall Medical/Dental,150 Medical Dr,Pearsall,Frio,78061,Primary Care Site,28.8973487,-99.1166977
"South Texas Rural Health Services, Inc.",South Texas Rural Health Services - Pearsall Wellness Center,158 Medical Dr,Pearsall,Frio,78061,Primary Care Site,28.8970499,-99.1168231
"South Texas Rural Health Services, Inc.",South Texas Rural Health Services - Encinal Medical,100 S Main St,Encinal,La Salle,78019,Primary Care Site,28.0386536,-99.3556637
"South Texas Rural Health Services, Inc.",South Texas Rural Health Services - Dilley Medical,606 W Leona,Dilley,Frio,78017,Primary Care Site,28.6691698,-99.1779954
"South Texas Rural Health Services, Inc.",South Texas Rural Health Services - Dilley Wellness Center,606 W Leona,Dilley,Frio,78017,Primary Care Site,28.6691698,-99.1779954
"South Texas Rural Health Services, Inc.",South Texas Rural Health Services - Devine Wellness Center,1010 Hondo Ave,Devine,Medina,78016,Primary Care Site,29.1476629,-98.9156684
"South Texas Rural Health Services, Inc.",South Texas Rural Health Services - Cotulla Wellness Center,105 S Stewart,Cotulla,La Salle,78014,Primary Care Site,28.4340027,-99.2361675
Southwest Texas Network,"Community Health Development, Inc.",201 South Evans Street,Uvalde,Uvalde,78801,Primary Care Site,29.203858,-99.796149
Southwest Texas Network,Atascosa Health Center,310 West Oaklawn,Pleasanton,Atascosa,78064,Primary Care Site,28.9573263,-98.4867787
Southwest Texas Network,Frontera Healthcare Network,"604 Eaker Street, P.O. Box 989",Eden,Concho,76837,Primary Care Site,31.2212743,-99.8474383
Special Health Resources for Texas,Special Health Resources - Woman & Child Health Center of Longview,402 N 7th St,Longview,Gregg,75601,Primary Care Site,32.4969404,-94.7274698
Special Health Resources for Texas,Special Health Resources - Tyler Care Clinic,1300 Clinic Dr,Tyler,Smith,75701,Primary Care Site,32.3389679,-95.2863426
Special Health Resources for Texas,Special Health Resources - Jim Meyers Comprehensive Health Center,410 N 4th St,Longview,Gregg,75602,Primary Care Site,32.4967987,-94.7311125
Special Health Resources for Texas,Special Health Resources - Med Plaza Pediatrics,703 E Marshall Ave,Longview,Gregg,75601,Primary Care Site,32.5026355,-94.730394
Special Health Resources for Texas,Special Health Resources - Texarkana Care Clinic,1102 Main St,Texarkana,Bowie,75501,Primary Care Site,33.4295369,-94.0489631
Special Health Resources for Texas,Special Health Resources - Paris Care Clinic,3150 Clarksville St,Paris,Lamar,75460,Primary Care Site,33.647611,-95.517608
Special Health Resources for Texas,Special Health Resources - All for Kids Clinic,300 E 6th St,Texarkana,Bowie,71854,Primary Care Site,33.4266216,-94.0402601
Spring Branch Community Health Center,Spring Branch Community Health Center - Katy Clinic,5502 1st St,Katy,Harris,77493,Primary Care Site,29.7867196,-95.8201796
Spring Branch Community Health Center,Spring Branch Community Health Center - West Houston Clinic,19333 Clay Rd,Katy,Harris,77449,Primary Care Site,29.8306594,-95.7073204
Spring Branch Community Health Center,Spring Branch Community Health Center - Cy-Fair Clinic,7777 Westgreen Blvd,Cypress,Harris,77433,Primary Care Site,29.890022,-95.7440523
Spring Branch Community Health Center,Spring Branch Community Health Center - Pitner Clinic,8575 Pitner Rd,Houston,Harris,77080,Primary Care Site,29.8282706,-95.5016556
Spring Branch Community Health Center,Spring Branch Community Health Center - Hillendahl Clinic,1615 Hillendahl Blvd,Houston,Harris,77055,Primary Care Site,29.8003123,-95.4946552
Spring Branch Community Health Center,Spring Branch Community Health Center - WholeLife Service Center,1905 Jacquelyn Dr,Houston,Harris,77055,Primary Care Site,29.8051503,-95.481178
Spring Branch Community Health Center,Spring Branch Community Health Center - Administraton,800 W Sam Houston Pkwy S,Houston,Harris,77042,Administrative only,29.7530258,-95.5588351
"St. Hope Foundation, Inc.",St. Hope - Texas City Clinic,6801 Emmett F. Lowry Expy,Texas City,Galveston,77591,Primary Care Site,29.3939725,-94.9858081
"St. Hope Foundation, Inc.",St. Hope - Sugarland Community Health Center,13020 S Dairy Ashford Rd,Sugarland,Fort Bend,77478,Primary Care Site,29.6608096,-95.5982825
"St. Hope Foundation, Inc.",St. Hope - Bellaire (Houston) Community Health Center,6800 W Loop South,Bellaire,Harris,77401,Primary Care Site,29.7053142,-95.4601709
"St. Hope Foundation, Inc.",St. Hope - Conroe Community Health Center,1414 S Frazier,Conroe,Montgomery,77301,Primary Care Site,30.2853347,-95.4570999
"St. Hope Foundation, Inc.",St. Hope - Greenspoint Community Health Center,255 Northpoint Dr,Houston,Harris,77060,Unknown,29.9385975,-95.4040177
Stephen F. Austin Community Health Center,Stephen F. Austin Community Health Center - Freeport Community Health Center,905 N Gulf Blvd,Freeport,Brazoria,77541,Primary Care Site,28.9677201,-95.3688064
Stephen F. Austin Community Health Center,Stephen F. Austin Community Health Center - Administration,1612 Callaway,Alvin,Brazoria,77511,Other services only,29.4137413,-95.2658768
Stephen F. Austin Community Health Center,Stephen F. Austin Community Health Center - Adoue Family Health Center,1111 W Adoue St,Alvin,Brazoria,77511,Primary Care Site,29.4196141,-95.25511
Stephen F. Austin Community Health Center,Stephen F. Austin Community Health Center - Women and Children's Health Center,218 E House St,Alvin,Brazoria,77511,Primary Care Site,29.4180445,-95.2421057
Su Clinica Familiar dba Su Clinica,Su Clinica - Santa Rosa Clinic,Hwy 107 & La Feria Ave,Santa Rosa,Cameron,78593,Primary Care Site,26.2551153,-97.825394
Su Clinica Familiar dba Su Clinica,Su Clinica - Santa Rosa Dental,Hwy 107 & La Feria Ave,Santa Rosa,Cameron,78593,Other services only,26.2551153,-97.825394
Su Clinica Familiar dba Su Clinica,Su Clinica - Raymondville Clinic,131 FM 3168,Raymondville,Willacy,78580,Primary Care Site,26.4676563,-97.7836115
Su Clinica Familiar dba Su Clinica,Su Clinica - Harlingen Clinic,1706 Treasure Hills Blvd,Harlingen,Cameron,78550,Primary Care Site,26.1720702,-97.667443
Su Clinica Familiar dba Su Clinica,Su Clinica - Brownsville Clinic,105 E Alton Gloor,Brownsville,Cameron,78520,Primary Care Site,25.9804278,-97.5143177
Tejas Health Care,Tejas Health Care,753 E Travis St,La Grange,Fayette,78945,Primary Care Site,29.9099258,-96.8699586
Tejas Health Care,Tejas Health Care - Dental,220 W Guadalupe St,La Grange,Fayette,78945,Primary Care Site,29.9088017,-96.8805277
Tejas Health Care,Tejas Health Care - Fayette County WIC Clinic,275 Ellinger Rd,La Grange,Fayette,78945,Primary Care Site,29.9126741,-96.8618627
Tejas Health Care,Tejas Health Care - Giddings,185 Decker Dr,Giddings,Lee,78945,Primary Care Site,30.1912079,-96.926595
Tejas Health Care,Tejas Health Care - Lee County WIC Clinic,185 Decker Dr,Giddings,Lee,78942,Primary Care Site,30.1912079,-96.926595
Texas Tech University Health Sciences Center dba Larry Combest Community Health and Wellness Center,Larry Combest Community Health - Abilene Community Health Center,1749 Pine St,Abilene,Taylor,79601,Primary Care Site,32.4693887,-99.7306542
Texas Tech University Health Sciences Center dba Larry Combest Community Health and Wellness Center,Larry Combest Community Health - Central Community Health Center,2424 50th St,Lubbock,Lubbock,79412,Primary Care Site,33.5492157,-101.8698367
Texas Tech University Health Sciences Center dba Larry Combest Community Health and Wellness Center,Larry Combest Community Health and Wellness Center,301 40th St,Lubbock,Lubbock,79404,Primary Care Site,33.557426,-101.8379899
Triangle Area Network,Triangle Area Network - Beaumont,1495 N 7th St,Beaumont,Jefferson,77702,Primary Care Site,30.0955371,-94.1207547
Triangle Area Network,Triangle Area Network - Orange,3737 N 16th St,Orange,Orange,77632,Primary Care Site,30.1236562,-93.7486943
Tyler Family Circle of Care dba FAMILY Circle of Care,FAMILY Circle of Care - Houston Pediatric Clinic,214 E Houston,Tyler,Smith,75702,Primary Care Site,32.3439836,-95.2988703
Tyler Family Circle of Care dba FAMILY Circle of Care,FAMILY Circle of Care - Jacksonville Clinic,510 E Commerce St,Jacksonville,Cherokee,75766,Primary Care Site,31.9653771,-95.2696887
Tyler Family Circle of Care dba FAMILY Circle of Care,FAMILY Circle of Care - Athens Clinic,1001 N Palestine,Athens,Henderson,75751,Primary Care Site,32.2180689,-95.8537157
Tyler Family Circle of Care dba FAMILY Circle of Care,FAMILY Circle of Care - Administration Annex,523 S Fannin Ave,Tyler,Smith,75702,Administrative only,32.3443796,-95.2986987
Tyler Family Circle of Care dba FAMILY Circle of Care,FAMILY Circle of Care - Glenwood Clinic,928 N Glenwood Blvd,Tyler,Smith,75702,Primary Care Site,32.3605173,-95.3201715
Tyler Family Circle of Care dba FAMILY Circle of Care,FAMILY Circle of Care - North Broadway Pediatric Clinic,2990 N Broadway,Tyler,Smith,75702,Primary Care Site,32.3790533,-95.3030594
United Medical Centers,United Medical Centers - Eidson Road Clinic,1175 Eidson Rd,Eagle Pass,Maverick,78852,Primary Care Site,28.6931956,-100.4866871
United Medical Centers,United Medical Centers - Eidson Road WIC Program,1175 Eidson Rd,Eagle Pass,Maverick,78852,WIC only,28.6931956,-100.4866871
United Medical Centers,United Medical Centers - El Indio Hwy Clinic,4018 El Indio Hwy,Eagle Pass,Maverick,78852,Primary Care Site,28.6736895,-100.4601166
United Medical Centers,United Medical Centers - Veterans Blvd,2525 N Veterans Blvd,Eagle Pass,Maverick,78852,Primary Care Site,28.7300521,-100.4789128
United Medical Centers,United Medical Centers - Veterans Blvd Dental Clinic,2525 N Veterans Blvd,Eagle Pass,Maverick,78852,Primary Care Site,28.7300521,-100.4789128
United Medical Centers,United Medical Centers - Veterans Blvd WIC Program,2525 N Veterans Blvd,Eagle Pass,Maverick,78852,WIC only,28.7300521,-100.4789128
United Medical Centers,United Medical Centers - Bedell Avenue Clinic,2209 Bedell Ave,Del Rio,Val Verde,78840,Primary Care Site,29.3903915,-100.9012069
United Medical Centers,United Medical Centers - Main Street,913 S Main St,Del Rio,Val Verde,78840,Primary Care Site,29.3553766,-100.8988245
United Medical Centers,United Medical Centers - San Felipe Clinic,1117 W De La Rosa,Del Rio,Val Verde,78840,Primary Care Site,29.3645455,-100.884339
United Medical Centers,United Medical Centers - San Felipe Dental Clinic,1117 W De La Rosa,Del Rio,Val Verde,78840,Primary Care Site,29.3645455,-100.884339
United Medical Centers,United Medical Centers - Brackettville,201 James St,Brackettville,Kinney,78832,WIC only,29.3121689,-100.4174614
United Medical Centers,United Medical Centers - James Street,202 James St,Brackettville,Kinney,78832,Primary Care Site,29.3122599,-100.4175541
"Valley AIDS Council, Inc.","Valley AIDS Council  - Westbrook Clinic, Camelot Plaza",300 S 2nd St,McAllen,Hidalgo,79501,Other services only,26.2034071,-98.2300124
"Valley AIDS Council, Inc.","Valley AIDS Council - Westbrook Clinic, 2nd Street",2306 Camelot Plaza Cir,Harlingen,Cameron,78550,Other services only,26.1687555,-97.6719792
"Valley AIDS Council, Inc.",Valley AIDS Council,857 E Washington,Brownsville,Cameron,78520,Other services only,25.9040945,-97.4996412
Valley Primary Care Network,Nuestra Clinica Del Valle,801 W. 1st Street,San Juan,Hidalgo,78589,Primary Care Site,26.1950551,-98.1650426
Valley Primary Care Network,Su Clinica Familiar,1706 Treasure Hills Blvd.,Harlingen,Cameron,78550,Primary Care Site,26.1720702,-97.667443
Valley Primary Care Network,Brownsville Community Health Center,191 East Price Road,Brownsville,Cameron,78521,Primary Care Site,25.9315018,-97.4625673
"Vida y Salud Health Systems, Inc.",Vida y Salud - LPISD Community & School Based Health Clinic,Hwy 57 & Edith St,La Pryor,Zavala,78872,Primary Care Site,28.9425958,-99.8471598
"Vida y Salud Health Systems, Inc.",Vida y Salud - CCISD School Based Clinic,909 Airport Dr,Crystal City,Zavala,78839,Primary Care Site,28.6959108,-99.8200856
"Vida y Salud Health Systems, Inc.",Vida y Salud - WIC Project #19-01,308 Cesar Chavez Ave,Crystal City,Zavala,78839,WIC only,28.6760662,-99.8240325
"Vida y Salud Health Systems, Inc.","Vida y Salud Health Systems, Inc.",308 Cesar Chavez Ave,Crystal City,Zavala,78839,Primary Care Site,28.6760662,-99.8240325
"Vida y Salud Health Systems, Inc.",Vida y Salud - WIC Project #19-02,109-B N 1st,Carrizo Springs,Dimmit,78834,WIC only,28.5333007,-99.8521104
"Vida y Salud Health Systems, Inc.",Vida y Salud - WIC Project #19-04,400 S Getty St,Uvalde,Uvalde,78801,WIC only,29.2051159,-99.7838594
"Vida y Salud Health Systems, Inc.",Vida y Salud - WIC Project #19-03,216 N Center St,Cotulla,La Salle,78014,WIC only,28.4365205,-99.2352985